Facility ID,Name,Full Address,Street Number,Street Direction,Street Name,Street Type,Basketball,Splashpad,Playground,Ramada,Horsehoes,Volleyball,Restroom,Barbecue Grills,Picnic Tables,Lake,Trails,Baseball,Bleachers,Dog Area,Soccer,Disc Golf,Tennis,Pickelball,Raquetball,Exercise Course,NumberofAcres,Type,Park Site Map,Location,City,Latitude,Longitude
PKPK507,Fountain Plaza,417 E Southern Ave,417,E,Southern,Ave,NO,NO,NO,NO,NO,NO,NO,NO,NO,NO,NO,NO,NO,NO,NO,NO,NO,NO,NO,NO,0,Park,,,,,
PKBN132,Basin 734,2807 N 64th St,2935,N,64th, St,NO,NO,NO,NO,NO,NO,NO,NO,NO,NO,NO,NO,NO,NO,NO,NO,NO,NO,NO,NO,0.1,Basin,,,,,
PKPK71,Freedom,1137 W 9th St,1137,W,9th, St,NO,NO,YES,NO,NO,NO,NO,NO,NO,NO,NO,NO,NO,NO,NO,NO,NO,NO,NO,NO,0.17,Park,,,,,
PKBN40,Basin 331,2321 N Yale,1840,N,Yale,,NO,NO,NO,NO,NO,NO,NO,NO,NO,NO,NO,NO,NO,NO,NO,NO,NO,NO,NO,NO,0.2,Basin,,,,,
PKBN24,Basin 409,208 E Bates St,407,E,Bates,St,NO,NO,NO,NO,NO,NO,NO,NO,NO,NO,NO,NO,NO,NO,NO,NO,NO,NO,NO,NO,0.2,Basin,,,,,
PKBN17,Basin 407,214 E Ivy St,1715,E,Ivy,St,NO,NO,NO,NO,NO,NO,NO,NO,NO,NO,NO,NO,NO,NO,NO,NO,NO,NO,NO,NO,0.3,Basin,,,,,
PKBN128,Basin 720,2810 N Kashmir,3211,N,Kashmir,,NO,NO,NO,NO,NO,NO,NO,NO,NO,NO,NO,NO,NO,NO,NO,NO,NO,NO,NO,NO,0.3,Basin,,,,,
PKBN50,Basin 313,812 N Ashbrook,2416,N,Ashbrook,,NO,NO,NO,NO,NO,NO,NO,NO,NO,NO,NO,NO,NO,NO,NO,NO,NO,NO,NO,NO,0.3,Basin,,,,,
PKBN41,Basin 334,2769 E Lynwood Cir,2408,E,Lynwood,Cir,NO,NO,NO,NO,NO,NO,NO,NO,NO,NO,NO,NO,NO,NO,NO,NO,NO,NO,NO,NO,0.3,Basin,,,,,
PKBLD6,Jefferson Recreation Center,120 S Jefferson Ave,120,S,Jefferson,Ave,NO,NO,NO,NO,NO,NO,NO,NO,NO,NO,NO,NO,NO,NO,NO,NO,NO,NO,NO,NO,0.386275292,Recreation,,"(33.412536, -111.679397)",Mesa,33.412536,-111.679397
PKBN51,Basin 319,2011 E Downing St,602,E,Downing, St,NO,NO,NO,NO,NO,NO,NO,NO,NO,NO,NO,NO,NO,NO,NO,NO,NO,NO,NO,NO,0.4,Basin,,"(33.428851, -111.787703)",Mesa,33.428851,-111.787703
PKBN69,Basin 702,462 N Maple,2016,N,Maple,,NO,NO,NO,NO,NO,NO,NO,NO,NO,NO,NO,NO,NO,NO,NO,NO,NO,NO,NO,NO,0.4,Basin,,"(33.424384, -111.7480746)",Mesa,33.424384,-111.7480746
PKBN83,Basin 721,1315 N 64th St,2810,N,64th, St,NO,NO,NO,NO,NO,NO,NO,NO,NO,NO,NO,NO,NO,NO,NO,NO,NO,NO,NO,NO,0.4,Basin,,"(33.439497, -111.692675)",Mesa,33.439497,-111.692675
PKBN1,Basin 605,755 S Date,740,S,Date,,NO,NO,NO,NO,NO,NO,NO,NO,NO,NO,NO,NO,NO,NO,NO,NO,NO,NO,NO,NO,0.4,Basin,,"(33.4009433, -111.8440497)",Mesa,33.4009433,-111.8440497
PKBN14,Basin 405,211 E Juniper St,101,E,Juniper,St,NO,NO,NO,NO,NO,NO,NO,NO,NO,NO,NO,NO,NO,NO,NO,NO,NO,NO,NO,NO,0.4,Basin,,"(33.4479574, -111.8264221)",Mesa,33.4479574,-111.8264221
PKBN43,Basin 308,2031 N Gilbert Rd,2621,N,Gilbert, Rd,NO,NO,NO,NO,NO,NO,NO,NO,NO,NO,NO,NO,NO,NO,NO,NO,NO,NO,NO,NO,0.5,Basin,,"(33.4518638, -111.787547)",Mesa,33.4518638,-111.787547
PKBN54,Basin 318,1110 N 35th St,2011,N,35th, St,NO,NO,NO,NO,NO,NO,NO,NO,NO,NO,NO,NO,NO,NO,NO,NO,NO,NO,NO,NO,0.5,Basin,,"(33.4614114, -112.0069755)",Mesa,33.4614114,-112.0069755
PKBN57,Basin 323,3443 E Caballero St,2409,E,Caballero, St,NO,NO,NO,NO,NO,NO,NO,NO,NO,NO,NO,NO,NO,NO,NO,NO,NO,NO,NO,NO,0.5,Basin,,"(33.423718, -111.756712)",Mesa,33.423718,-111.756712
PKBN11,Basin 427,909 E 9th Dr,1441,E,9th,Dr,NO,NO,NO,NO,NO,NO,NO,NO,NO,NO,NO,NO,NO,NO,NO,NO,NO,NO,NO,NO,0.5,Basin,,"(33.397338, -111.812143)",Mesa,33.397338,-111.812143
PKBN34,Basin 335,2420 N 24th St,2769,N,24th, St,NO,NO,NO,NO,NO,NO,NO,NO,NO,NO,NO,NO,NO,NO,NO,NO,NO,NO,NO,NO,0.5,Basin,,"(33.4746963, -112.0308)",Mesa,33.4746963,-112.0308
PKBN58,Basin 321,404 N Creston,544,N,Creston,on,NO,NO,NO,NO,NO,NO,NO,NO,NO,NO,NO,NO,NO,NO,NO,NO,NO,NO,NO,NO,0.5,Basin,,"(33.4230077, -111.7618617)",Mesa,33.4230077,-111.7618617
PKBN21,Basin 408,407 E Jensen St,214,E,Jensen,St,NO,NO,NO,NO,NO,NO,NO,NO,NO,NO,NO,NO,NO,NO,NO,NO,NO,NO,NO,NO,0.5,Basin,,"(33.447429, -111.822062)",Mesa,33.447429,-111.822062
PKBN48,Basin 312,2205 E Fountain St,812,E,Fountain, St,NO,NO,NO,NO,NO,NO,NO,NO,NO,NO,NO,NO,NO,NO,NO,NO,NO,NO,NO,NO,0.5,Basin,,"(33.4348699, -111.783289)",Mesa,33.4348699,-111.783289
PKBLD4,Broadway Recreation Center,59 E Broadway Rd,59,E,Broadway,Rd,NO,NO,NO,NO,NO,NO,NO,NO,NO,NO,NO,NO,NO,NO,NO,NO,NO,NO,NO,NO,0.539961094,Recreation,,"(33.407402, -111829367)",Mesa,33.407402,-111829367
PKBN94,Basin 727,3005 N Sericin,2806,N,Sericin,,NO,NO,NO,NO,NO,NO,NO,NO,NO,NO,NO,NO,NO,NO,NO,NO,NO,NO,NO,NO,0.6,Basin,,"(33.4700878, -111.6866459)",Mesa,33.4700878,-111.6866459
PKBN36,Basin 333,2408 N Acacia,2510,N,Acacia,,NO,NO,NO,NO,NO,NO,NO,NO,NO,NO,NO,NO,NO,NO,NO,NO,NO,NO,NO,NO,0.6,Basin,,"(33.4593066, -111.7837414)",Mesa,33.4593066,-111.7837414
PKBN2,Basin 604,740 W Emerald Ave,755,W,Emerald,Ave,NO,NO,NO,NO,NO,NO,NO,NO,NO,NO,NO,NO,NO,NO,NO,NO,NO,NO,NO,NO,0.6,Basin,,"(33.397115, -111.847637)",Mesa,33.397115,-111.847637
PKBN82,Basin 713,6313 E Gary St,6045,E,Gary, St,NO,NO,NO,NO,NO,NO,NO,NO,NO,NO,NO,NO,NO,NO,NO,NO,NO,NO,NO,NO,0.6,Basin,,"(33.439524, -111.694855)",Mesa,33.439524,-111.694855
PKBLD9,Webster Recreation Center,202 N Sycamore St,202,N,Sycamore,St,NO,NO,NO,NO,NO,NO,NO,NO,NO,NO,NO,NO,NO,NO,NO,NO,NO,NO,NO,NO,0.682886574,Recreation,,"(33.418912, -111.8712)",Mesa,33.418912,-111.8712
PKBN122,Basin 108,2445 S Saranac,10045,S,Saranac,,NO,NO,NO,NO,NO,NO,NO,NO,NO,NO,NO,NO,NO,NO,NO,NO,NO,NO,NO,NO,0.7,Basin,,"(33.3710924, -111.6855605)",Mesa,33.3710924,-111.6855605
PKBN19,Basin 402,153 W Indigo St,155,W,Indigo,St,NO,NO,NO,NO,NO,NO,NO,NO,NO,NO,NO,NO,NO,NO,NO,NO,NO,NO,NO,NO,0.7,Basin,,"(33.444552, -111.835156)",Mesa,33.444552,-111.835156
PKBN12,Basin 421,1817 E 1st St,1562,E,1st, St,NO,NO,NO,NO,NO,NO,NO,NO,NO,NO,NO,NO,NO,NO,NO,NO,NO,NO,NO,NO,0.7,Basin,,"(33.416929, -111.792063)",Mesa,33.416929,-111.792063
PKBN46,Basin 310,1713 N 24th St,2840,N,24th, St,NO,NO,NO,NO,NO,NO,NO,NO,NO,NO,NO,NO,NO,NO,NO,NO,NO,NO,NO,NO,0.7,Basin,,"(33.447138, -111.779192)",Mesa,33.447138,-111.779192
PKBN26,Basin 414,1862 E Jensen St,2560,E,Jensen, St,NO,NO,NO,NO,NO,NO,NO,NO,NO,NO,NO,NO,NO,NO,NO,NO,NO,NO,NO,NO,0.7,Basin,,"(33.448407, -111.790007)",Mesa,33.448407,-111.790007
PKBN85,Basin 716,1831 N 64th St,6260,N,64th, St,NO,NO,NO,NO,NO,NO,NO,NO,NO,NO,NO,NO,NO,NO,NO,NO,NO,NO,NO,NO,0.8,Basin,,"(33.448952, -111.692424)",Mesa,33.448952,-111.692424
PKBN125,Basin 732,6202 E Hermosa Vista Dr,553,E,Hermosa Vista, Dr,NO,NO,NO,NO,NO,NO,NO,NO,NO,NO,NO,NO,NO,NO,NO,NO,NO,NO,NO,NO,0.8,Basin,,"(33.4595432, -111.6967412)",Mesa,33.4595432,-111.6967412
PKBN47,Basin 311,2840 E Glencove St,2205,E,Glencove, St,NO,NO,NO,NO,NO,NO,NO,NO,NO,NO,NO,NO,NO,NO,NO,NO,NO,NO,NO,NO,0.8,Basin,,"(33.4391611, -111.7696563)",Mesa,33.4391611,-111.7696563
PKBN28,Basin 413,2560 N Gilbert Rd,2421,N,Gilbert, Rd,NO,NO,NO,NO,NO,NO,NO,NO,NO,NO,NO,NO,NO,NO,NO,NO,NO,NO,NO,NO,0.8,Basin,,"(33.4626854, -111.7895125)",Mesa,33.4626854,-111.7895125
PKBN124,Basin 733,2935 N 64th St,6202,N,64th, St,NO,NO,NO,NO,NO,NO,NO,NO,NO,NO,NO,NO,NO,NO,NO,NO,NO,NO,NO,NO,0.8,Basin,,"(33.4690574, -111.6923068)",Mesa,33.4690574,-111.6923068
PKBN16,Basin 403,140 W Inglewood St,153,W,Inglewood,St,NO,NO,NO,NO,NO,NO,NO,NO,NO,NO,NO,NO,NO,NO,NO,NO,NO,NO,NO,NO,0.8,Basin,,"(33.44761, -111.834985)",Mesa,33.44761,-111.834985
PKBN35,Basin 303,2425 N Rose,2430,N,Rose,,NO,NO,NO,NO,NO,NO,NO,NO,NO,NO,NO,NO,NO,NO,NO,NO,NO,NO,NO,NO,0.8,Basin,,"(33.459499, -111.781726)",Mesa,33.459499,-111.781726
PKBN13,Basin 420,1562 E 8th St,231,E,8th, St,NO,NO,NO,NO,NO,NO,NO,NO,NO,NO,NO,NO,NO,NO,NO,NO,NO,NO,NO,NO,0.8,Basin,,"(33.4298017, -111.7975314)",Mesa,33.4298017,-111.7975314
PKBN18,Basin 401,155 W McLellan Rd,2420,W,McLellan,Rd,NO,NO,NO,NO,NO,NO,NO,NO,NO,NO,NO,NO,NO,NO,NO,NO,NO,NO,NO,NO,0.9,Basin,,"(33.443795, -111.835091)",Mesa,33.443795,-111.835091
PKBN123,Basin 406,1715 N Pasadena,211,N,Pasadena,,NO,NO,NO,NO,NO,NO,NO,NO,NO,NO,NO,NO,NO,NO,NO,NO,NO,NO,NO,NO,0.9,Basin,,"(33.4467521, -111.8264461)",Mesa,33.4467521,-111.8264461
PKBN78,Basin 701,2016 N Maple,1834,N,Maple,,NO,NO,NO,NO,NO,NO,NO,NO,NO,NO,NO,NO,NO,NO,NO,NO,NO,NO,NO,NO,0.9,Basin,,"(33.452248, -111.746482)",Mesa,33.452248,-111.746482
PKBN62,Basin 326,3416 E Coralbell Ave,736,E,Coralbell,Ave,NO,NO,NO,NO,NO,NO,NO,NO,NO,NO,NO,NO,NO,NO,NO,NO,NO,NO,NO,NO,0.9,Basin,,"(33.404195, -111.6283748)",Mesa,33.404195,-111.6283748
PKBN9,Basin 422,921 S Spur,1817,S,Spur,,NO,NO,NO,NO,NO,NO,NO,NO,NO,NO,NO,NO,NO,NO,NO,NO,NO,NO,NO,NO,0.9,Basin,,"(33.39807, -111.800393)",Mesa,33.39807,-111.800393
PKBN111,Basin 808,9934 E Quarterline Rd,8015,E,Quarterline, Rd,NO,NO,NO,NO,NO,NO,NO,NO,NO,NO,NO,NO,NO,NO,NO,NO,NO,NO,NO,NO,0.9,Basin,,"(33.4261945, -111.6168388)",Mesa,33.4261945,-111.6168388
PKPK30,Pequeno,537 N Oakland,537,N,Oakland,,lighted,NO,YES,NO,NO,NO,NO,YES,YES,NO,NO,NO,NO,NO,NO,NO,NO,NO,NO,YES,1,Park,http://www.mesaparks.com/home/showdocument?id=6282,"(33.425497, -111.737839)",Mesa,33.425497,-111.737839
PKPK59,Gateway,315 E Main,315,E,Main,,NO,NO,NO,NO,NO,NO,NO,NO,NO,NO,NO,NO,NO,NO,NO,NO,NO,NO,NO,NO,1,Park,,"(33.414672, -111.823239)",Mesa,33.414672,-111.823239
PKBN37,Basin 304,2400 E Menlo St,2235,E,Menlo, St,NO,NO,NO,NO,NO,NO,NO,NO,NO,NO,NO,NO,NO,NO,NO,NO,NO,NO,NO,NO,1,Basin,,"(33.4604707, -111.7790533)",Mesa,33.4604707,-111.7790533
PKBN15,Basin 404,101 E Juniper St,140,E,Juniper,St,NO,NO,NO,NO,NO,NO,NO,NO,NO,NO,NO,NO,NO,NO,NO,NO,NO,NO,NO,NO,1,Basin,,"(33.447952, -111.829334)",Mesa,33.447952,-111.829334
PKPLS1,Rhodes Pool,1860 S Longmore,1860,S,Longmore,Ave,NO,NO,NO,NO,NO,NO,NO,NO,NO,NO,NO,NO,NO,NO,NO,NO,NO,NO,NO,NO,1.001638721,Pool,,"(33.380196, -111.870831)",Mesa,33.380196,-111.870831
PKPK84,Sagebrush,1001 S Mesa Dr,1001,S,Mesa, Dr,NO,NO,NO,NO,NO,NO,NO,NO,NO,NO,NO,NO,NO,NO,NO,NO,NO,NO,NO,YES,1.01,Park,,"(33.396759, -111.822333)",Mesa,33.396759,-111.822333
PKPLS4,Fremont Pool,1001 N Power Rd,1001,N,Power,Rd,NO,NO,NO,NO,NO,NO,NO,NO,NO,NO,NO,NO,NO,NO,NO,NO,NO,NO,NO,NO,1.046929267,Pool,,"(33.432803, -111.683772)",Mesa,33.432803,-111.683772
PKBN10,Basin 423,1105 S Doran,921,S,Doran,,NO,NO,NO,NO,NO,NO,NO,NO,NO,NO,NO,NO,NO,NO,NO,NO,NO,NO,NO,NO,1.1,Basin,,"(33.395121, -111.802289)",Mesa,33.395121,-111.802289
PKBN27,Basin 415,1800 E McLellan Rd,1862,E,McLellan, Rd,NO,NO,NO,NO,NO,NO,NO,NO,NO,NO,NO,NO,NO,NO,NO,NO,NO,NO,NO,NO,1.1,Basin,,"(33.44468, -111.791573)",Mesa,33.44468,-111.791573
PKPLS2,Carson Pool,525 N Westwood,525,N,Westwood,,NO,NO,NO,NO,NO,NO,NO,NO,NO,NO,NO,NO,NO,NO,NO,NO,NO,NO,NO,NO,1.190557874,Pool,,"(33.424714, -111.850532)",Mesa,33.424714,-111.850532
PKBN32,Basin 302,2161 E Norcroft St,2400,E,Norcroft, St,NO,NO,NO,NO,NO,NO,NO,NO,NO,NO,NO,NO,NO,NO,NO,NO,NO,NO,NO,NO,1.2,Basin,,"(33.462976, -111.783094)",Mesa,33.462976,-111.783094
PKBN98,Basin 801,6865 E Jensen St,2807,E,Jensen, St,NO,NO,NO,NO,NO,NO,NO,NO,NO,NO,NO,NO,NO,NO,NO,NO,NO,NO,NO,NO,1.2,Basin,,"(33.448102, -111.681695)",Mesa,33.448102,-111.681695
PKBN96,Basin 728,2805 N Ramada,3005,N,Ramada,,NO,NO,NO,NO,NO,NO,NO,NO,NO,NO,NO,NO,NO,NO,NO,NO,NO,NO,NO,NO,1.2,Basin,,"(33.4667052, -111.6897685)",Mesa,33.4667052,-111.6897685
PKPLS8,Brimhall Pool,4949 E Southern Ave,4949,E,Southern,Ave,NO,NO,NO,NO,NO,NO,NO,NO,NO,NO,NO,NO,NO,NO,NO,NO,NO,NO,NO,NO,1.235280047,Pool,,"(33.392027, -111.724397)",Mesa,33.392027,-111.724397
PKPLS9,Stapley Pool,3250 E Hermosa Vista,3250,E,Hermosa Vista,,NO,NO,NO,NO,NO,NO,NO,NO,NO,NO,NO,NO,NO,NO,NO,NO,NO,NO,NO,NO,1.265061322,Pool,,"(33.460851, -111.759615)",Mesa,33.460851,-111.759615
PKBN121,Basin 103,5032 E Delta Ave,1143,E,Delta,Ave,NO,NO,NO,NO,NO,NO,NO,NO,NO,NO,NO,NO,NO,NO,NO,NO,NO,NO,NO,NO,1.3,Basin,,"(33.401882, -111.722695)",Mesa,33.401882,-111.722695
PKBN45,Basin 309,2621 E Kenwood St,1713,E,Kenwood, St,NO,NO,NO,NO,NO,NO,NO,NO,NO,NO,NO,NO,NO,NO,NO,NO,NO,NO,NO,NO,1.3,Basin,,"(33.453933, -111.774713)",Mesa,33.453933,-111.774713
PKBN49,Basin 314,2416 E Adobe St,844,E,Adobe, St,NO,NO,NO,NO,NO,NO,NO,NO,NO,NO,NO,NO,NO,NO,NO,NO,NO,NO,NO,NO,1.3,Basin,,"(33.430298, -111.778987)",Mesa,33.430298,-111.778987
PKBN60,Basin 324,2409 E Boston St,3234,E,Boston, St,NO,NO,NO,NO,NO,NO,NO,NO,NO,NO,NO,NO,NO,NO,NO,NO,NO,NO,NO,NO,1.4,Basin,,"(33.419409, -111.779376)",Mesa,33.419409,-111.779376
PKBN55,Basin 317,1045 N Miramar,1110,N,Miramar,,NO,NO,NO,NO,NO,NO,NO,NO,NO,NO,NO,NO,NO,NO,NO,NO,NO,NO,NO,NO,1.4,Basin,,"(33.434644, -111.757268)",Mesa,33.434644,-111.757268
PKBN30,Basin 411,1414 E Leland St,2050,E,Leland, St,NO,NO,NO,NO,NO,NO,NO,NO,NO,NO,NO,NO,NO,NO,NO,NO,NO,NO,NO,NO,1.4,Basin,,"(33.4581152, -111.8002177)",Mesa,33.4581152,-111.8002177
PKBN25,Basin 416,1212 N Barkley,1800,N,Barkley,,NO,NO,NO,NO,NO,NO,NO,NO,NO,NO,NO,NO,NO,NO,NO,NO,NO,NO,NO,NO,1.4,Basin,,"(33.437569, -111.800546)",Mesa,33.437569,-111.800546
PKBN6,Basin 426,1441 S Hobson,1530,S,Hobson,,NO,NO,NO,NO,NO,NO,NO,NO,NO,NO,NO,NO,NO,NO,NO,NO,NO,NO,NO,NO,1.4,Basin,,"(33.3886115, -111.8180253)",Mesa,33.3886115,-111.8180253
PKBN95,Basin 726,2806 N Saffron Cir,525,N,Saffron,Cir,NO,NO,NO,NO,NO,NO,NO,NO,NO,NO,NO,NO,NO,NO,NO,NO,NO,NO,NO,NO,1.4,Basin,,"(33.4667529, -111.6877712)",Mesa,33.4667529,-111.6877712
PKBN44,Basin 307,2201 N 24th St,2031,N,24th, St,NO,NO,NO,NO,NO,NO,NO,NO,NO,NO,NO,NO,NO,NO,NO,NO,NO,NO,NO,NO,1.5,Basin,,"(33.456288, -111.7788854)",Mesa,33.456288,-111.7788854
PKBN38,Basin 301,2616 E Northridge St,2425,E,Northridge, St,NO,NO,NO,NO,NO,NO,NO,NO,NO,NO,NO,NO,NO,NO,NO,NO,NO,NO,NO,NO,1.5,Basin,,"(33.464494, -111.774432)",Mesa,33.464494,-111.774432
PKBN39,Kashiwagi,2430 N Kristen,650,N,Kristen,,NO,NO,NO,NO,NO,NO,NO,NO,NO,NO,NO,NO,NO,NO,NO,NO,NO,NO,NO,NO,1.5,Basin,,"(33.459711, -111.7745749)",Mesa,33.459711,-111.7745749
PKBN77,Basin 724,4213 E Hackamore St,6420,E,Hackamore, St,NO,NO,NO,NO,NO,NO,NO,NO,NO,NO,NO,NO,NO,NO,NO,NO,NO,NO,NO,NO,1.5,Basin,,"(33.441338, -111.740211)",Mesa,33.441338,-111.740211
PKBN63,Basin 327,736 S Glenview,2110,S,Glenview,,NO,NO,NO,NO,NO,NO,NO,NO,NO,NO,NO,NO,NO,NO,NO,NO,NO,NO,NO,NO,1.5,Basin,,"(33.401714, -111.775043)",Mesa,33.401714,-111.775043
PKBN118,Basin 107,4005 E Hopi Ave,250,E,Hopi,Ave,NO,NO,NO,NO,NO,NO,NO,NO,NO,NO,NO,NO,NO,NO,NO,NO,NO,NO,NO,NO,1.6,Basin,,"(33.3880229, -111.744901)",Mesa,33.3880229,-111.744901
PKBN56,Basin 316,3135 E Ellis St,1045,E,Ellis, St,NO,NO,NO,NO,NO,NO,NO,NO,NO,NO,NO,NO,NO,NO,NO,NO,NO,NO,NO,NO,1.6,Basin,,"(33.4305499, -111.761185)",Mesa,33.4305499,-111.761185
PKBN33,Basin 332,2510 N Gentry,2321,N,Gentry,,NO,NO,NO,NO,NO,NO,NO,NO,NO,NO,NO,NO,NO,NO,NO,NO,NO,NO,NO,NO,1.6,Basin,,"(33.4611705, -111.7870273)",Mesa,33.4611705,-111.7870273
PKPLS7,Shepherd Pool,1407 N Alta Mesa Dr,1407,N,Alta Mesa,Dr,NO,NO,NO,NO,NO,NO,NO,NO,NO,NO,NO,NO,NO,NO,NO,NO,NO,NO,NO,NO,1.607807267,Pool,,"(33.440735, -111.705984)",Mesa,33.440735,-111.705984
PKPLS10,Mesa Pool,1630 E Southern Ave,1630,E,Southern,Ave,NO,NO,NO,NO,NO,NO,NO,NO,NO,NO,NO,NO,NO,NO,NO,NO,NO,NO,NO,NO,1.673251909,Pool,,"(33.393927, -111.795942)",Mesa,33.393927,-111.795942
PKBN31,Basin 410,2050 N Lazona Dr,208,N,Lazona, Dr,NO,NO,NO,NO,NO,NO,NO,NO,NO,NO,NO,NO,NO,NO,NO,NO,NO,NO,NO,NO,1.7,Basin,,"(33.452936, -111.800366)",Mesa,33.452936,-111.800366
PKBN3,Basin 603,755 W Flower Ave,2646,W,Flower,Ave,NO,NO,NO,NO,NO,NO,NO,NO,NO,NO,NO,NO,NO,NO,NO,NO,NO,NO,NO,NO,1.7,Basin,,"(33.394401, -111.847845)",Mesa,33.394401,-111.847845
PKBN93,Basin 715,6260 E Orion St,6023,E,Orion, St,NO,NO,NO,NO,NO,NO,NO,NO,NO,NO,NO,NO,NO,NO,NO,NO,NO,NO,NO,NO,1.7,Basin,,"(33.46963, -111.695343)",Mesa,33.46963,-111.695343
PKBN97,Basin 814,6812 E Minton St,715,E,Minton, St,NO,NO,NO,NO,NO,NO,NO,NO,NO,NO,NO,NO,NO,NO,NO,NO,NO,NO,NO,NO,1.8,Basin,,"(33.4618132, -111.6836361)",Mesa,33.4618132,-111.6836361
PKBN100,Basin 804,7026 E Brown Rd,1240,E,Brown, Rd,NO,NO,NO,NO,NO,NO,NO,NO,NO,NO,NO,NO,NO,NO,NO,NO,NO,NO,NO,NO,1.9,Basin,,"(33.4375509, -111.6795498)",Mesa,33.4375509,-111.6795498
PKBN29,Basin 412,2421 N Harris Dr,1414,N,Harris, Dr,NO,NO,NO,NO,NO,NO,NO,NO,NO,NO,NO,NO,NO,NO,NO,NO,NO,NO,NO,NO,1.9,Basin,,"(33.459796, -111.795639)",Mesa,33.459796,-111.795639
PKBN7,Basin 424,1251 E Hilton Ave,1105,E,Hilton,Ave,NO,NO,NO,NO,NO,NO,NO,NO,NO,NO,NO,NO,NO,NO,NO,NO,NO,NO,NO,NO,1.9,Basin,,"(33.3891278, -111.8039908)",Mesa,33.3891278,-111.8039908
PKPK506,City View ,1511 S Mesa Dr,1511,S,Mesa, Dr,NO,NO,NO,NO,NO,NO,NO,NO,NO,NO,NO,NO,NO,NO,NO,NO,NO,NO,NO,NO,1.95,Park,,"(33.3876719, -111.8222851)",Mesa,33.3876719,-111.8222851
PKBN66,Kingsgate,1938 S Glenview,7555,S,Glenview,,NO,NO,NO,NO,NO,NO,NO,NO,NO,NO,NO,NO,NO,NO,NO,NO,NO,NO,NO,NO,2,Basin,,"(33.379767, -111.775321)",Mesa,33.379767,-111.775321
PKPK58,Stapley,360 S Lesueur,360,S,Lesueur,,lighted,NO,YES,"non-reservable, shaded",NO,NO,NO,YES,YES,NO,NO,NO,NO,NO,NO,NO,NO,NO,NO,NO,2,Park,http://www.mesaparks.com/home/showdocument?id=6310,"(33.4085543, -111.8210173)",Mesa,33.4085543,-111.8210173
PKBN72,Basin 710,839 N Quail Cir,1231,N,Quail,Cir,NO,NO,NO,NO,NO,NO,NO,NO,NO,NO,NO,NO,NO,NO,NO,NO,NO,NO,NO,NO,2,Basin,,"(33.4306798, -111.7282434)",Mesa,33.4306798,-111.7282434
PKPK55,Washington,44 E 5th St,44,E,5th,St,lighted,NO,shaded,"non-reservable, shaded",NO,"lighted, concrete",NO,NO,YES,NO,NO,NO,NO,NO,NO,NO,NO,NO,NO,NO,2,Park,http://www.mesaparks.com/home/showdocument?id=6318,"(33.4241595, -111.829983)",Mesa,33.4241595,-111.829983
PKBN76,Basin 708,1634 N Maple,4026,N,Maple,,NO,NO,NO,NO,NO,NO,NO,NO,NO,NO,NO,NO,NO,NO,NO,NO,NO,NO,NO,NO,2,Basin,,"(33.44507, -111.748615)",Mesa,33.44507,-111.748615
PKPLS3,Kino Pool,848 N Horne,848,N,Horne,,NO,NO,NO,NO,NO,NO,NO,NO,NO,NO,NO,NO,NO,NO,NO,NO,NO,NO,NO,NO,2.007775592,Pool,,"(33.431325, -111.814938)",Mesa,33.431325,-111.814938
PKBN61,Basin 325,3234 E Coralbell Ave,3416,E,Coralbell,Ave,NO,NO,NO,NO,NO,NO,NO,NO,NO,NO,NO,NO,NO,NO,NO,NO,NO,NO,NO,NO,2.2,Basin,,"(33.404195, -111.6283955)",Mesa,33.404195,-111.6283955
PKBN126,Basin 112,11228 E Warner Rd,10226,E,Warner,Rd,NO,NO,NO,NO,NO,NO,NO,NO,NO,NO,NO,NO,NO,NO,NO,NO,NO,NO,NO,NO,2.3,Basin,,"(33.3360639, -111.5912996)",Mesa,33.3360639,-111.5912996
PKBN81,Basin 722,6015 E Gary St,1315,E,Gary, St,NO,NO,NO,NO,NO,NO,NO,NO,NO,NO,NO,NO,NO,NO,NO,NO,NO,NO,NO,NO,2.3,Basin,,"(33.439327, -111.701038)",Mesa,33.439327,-111.701038
PKBN73,Basin 706,4426 E Adobe St,552,E,Adobe, St,NO,NO,NO,NO,NO,NO,NO,NO,NO,NO,NO,NO,NO,NO,NO,NO,NO,NO,NO,NO,2.3,Basin,,"(33.430651, -111.735769)",Mesa,33.430651,-111.735769
PKPLS6,Skyline Pool,845 S Crismon,845,S,Crismon,,NO,NO,NO,NO,NO,NO,NO,NO,NO,NO,NO,NO,NO,NO,NO,NO,NO,NO,NO,NO,2.374762268,Pool,,"(33.399429, -111.614581)",Mesa,33.399429,-111.614581
PKBN120,Basin 101,5228 E Delta Ave,3656,E,Delta,Ave,NO,NO,NO,NO,NO,NO,NO,NO,NO,NO,NO,NO,NO,NO,NO,NO,NO,NO,NO,NO,2.4,Basin,,"(33.401917, -111.718262)",Mesa,33.401917,-111.718262
PKBN88,Basin 717,6434 E McLellan Rd,1831,E,McLellan, Rd,NO,NO,NO,NO,NO,NO,NO,NO,NO,NO,NO,NO,NO,NO,NO,NO,NO,NO,NO,NO,2.4,Basin,,"(33.445028, -111.691999)",Mesa,33.445028,-111.691999
PKPK56,Escobedo,215 E 6th St,215,E,6th,St,YES,NO,YES,"non-reservable, shaded",NO,NO,YES,NO,YES,NO,NO,271 ft,NO,NO,NO,NO,NO,NO,NO,NO,2.5,Park,http://www.mesaparks.com/parks-facilities/parks/escobedo-park,"(33.4255116, -111.8264896)",Mesa,33.4255116,-111.8264896
PKBN103,Basin 809,8045 E Dover St,7560,E,Dover, St,NO,NO,NO,NO,NO,NO,NO,NO,NO,NO,NO,NO,NO,NO,NO,NO,NO,NO,NO,NO,2.6,Basin,,"(33.426658, -111.6570546)",Mesa,33.426658,-111.6570546
PKBN65,Basin 330,1840 S Fontana,1938,S,Fontana,,NO,NO,NO,NO,NO,NO,NO,NO,NO,NO,NO,NO,NO,NO,NO,NO,NO,NO,NO,NO,2.6,Basin,,"(33.381444, -111.770576)",Mesa,33.381444,-111.770576
PKBN99,Basin 802,1228 N Terripin,6865,N,Terripin,,NO,NO,NO,NO,NO,NO,NO,NO,NO,NO,NO,NO,NO,NO,NO,NO,NO,NO,NO,NO,2.6,Basin,,"(33.437486, -111.675123)",Mesa,33.437486,-111.675123
PKBN106,Basin 813,463 N Calle Largo,713,N,Calle,,NO,NO,NO,NO,NO,NO,NO,NO,NO,NO,NO,NO,NO,NO,NO,NO,NO,NO,NO,NO,2.6,Basin,,"(33.4241982, -111.659887)",Mesa,33.4241982,-111.659887
PKPK52,Porter,420 E 8th St,420,E,8th,St,lighted,NO,YES,"non-reservable, shaded",NO,NO,NO,NO,shaded,NO,NO,NO,NO,NO,NO,NO,NO,NO,NO,NO,2.7,Park,http://www.mesaparks.com/home/showdocument?id=6286,"(33.4306234, -111.8215042)",Mesa,33.4306234,-111.8215042
PKBN8,Basin 425,1530 S Harris Dr,1251,S,Harris, Dr,NO,NO,NO,NO,NO,NO,NO,NO,NO,NO,NO,NO,NO,NO,NO,NO,NO,NO,NO,NO,2.8,Basin,,"(33.387332, -111.797867)",Mesa,33.387332,-111.797867
PKBN71,Basin 707,4026 E Brown Rd,4426,E,Brown, Rd,NO,NO,NO,NO,NO,NO,NO,NO,NO,NO,NO,NO,NO,NO,NO,NO,NO,NO,NO,NO,2.8,Basin,,"(33.438017, -111.74439)",Mesa,33.438017,-111.74439
PKBN112,Basin 815,416 N St Claire Cir,463,N,St Claire,Cir,NO,NO,NO,NO,NO,NO,NO,NO,NO,NO,NO,NO,NO,NO,NO,NO,NO,NO,NO,NO,2.8,Basin,,"(33.4229106, -111.595454)",Mesa,33.4229106,-111.595454
PKPK1,Beverly ,115 N Beverly,115,N,Beverly,,NO,NO,YES,"non-reservable, shaded",NO,NO,NO,NO,YES,NO,NO,NO,NO,NO,NO,NO,NO,NO,NO,NO,2.86,Park,,"(33.4173841, -111.8534104)",Mesa,33.4173841,-111.8534104
PKBN107,Basin 810,515 N Greenwood,9934,N,Greenwood,,NO,NO,NO,NO,NO,NO,NO,NO,NO,NO,NO,NO,NO,NO,NO,NO,NO,NO,NO,NO,3,Basin,,"(33.4245295, -111.6625027)",Mesa,33.4245295,-111.6625027
PKPK26,Falcon Field,4800 E Falcon Dr,4800,E,Falcon, Dr,YES,NO,YES,"reservable, non-reservable, shaded",YES,"lighted, sand",YES,NO,YES,NO,NO,NO,NO,NO,NO,NO,NO,NO,NO,NO,3,Park,,"(33.4574305, -111.727417)",Mesa,33.4574305,-111.727417
PKBN86,Basin 718,1628 N 66th St,6434,N,66th, St,NO,NO,NO,NO,NO,NO,NO,NO,NO,NO,NO,NO,NO,NO,NO,NO,NO,NO,NO,NO,3.1,Basin,,"(33.445302, -111.688028)",Mesa,33.445302,-111.688028
PKBN134,Basin 117,6763 S Ellsworth Rd,2161,S,Ellsworth, Rd,NO,NO,NO,NO,NO,NO,NO,NO,NO,NO,NO,NO,NO,NO,NO,NO,NO,NO,NO,NO,3.2,Basin,,"(33.3886585, -111.6328059)",Mesa,33.3886585,-111.6328059
PKBN22,Basin 417,821 E Inca St,1212,E,Inca,St,NO,NO,NO,NO,NO,NO,NO,NO,NO,NO,NO,NO,NO,NO,NO,NO,NO,NO,NO,NO,3.3,Basin,,"(33.444268, -111.812963)",Mesa,33.444268,-111.812963
PKBN119,Basin 106,3701 E Holmes Ave,2445,E,Holmes,Ave,NO,NO,NO,NO,NO,NO,NO,NO,NO,NO,NO,NO,NO,NO,NO,NO,NO,NO,NO,NO,3.3,Basin,,"(33.3879949, -111.751522)",Mesa,33.3879949,-111.751522
PKBN75,Basin 709,1231 N 48th St,1634,N,48th, St,NO,NO,NO,NO,NO,NO,NO,NO,NO,NO,NO,NO,NO,NO,NO,NO,NO,NO,NO,NO,3.3,Basin,,"(33.437927, -111.726866)",Mesa,33.437927,-111.726866
PKPK31,Vista Monterey,633 N Val Vista,633,N,Val Vista,,NO,NO,YES,NO,NO,NO,NO,YES,YES,NO,NO,NO,NO,NO,NO,NO,NO,NO,NO,NO,3.4,Park,http://www.mesaparks.com/home/showdocument?id=6316,"(33.427561, -111.753056)",Mesa,33.427561,-111.753056
PKBN42,Basin 306,2235 E Leonora St,2201,E,Leonora, St,NO,NO,NO,NO,NO,NO,NO,NO,NO,NO,NO,NO,NO,NO,NO,NO,NO,NO,NO,NO,3.5,Basin,,"(33.45601, -111.783263)",Mesa,33.45601,-111.783263
PKBN117,Basin 105,1143 S 37th St,4005,S,37th, St,NO,NO,NO,NO,NO,NO,NO,NO,NO,NO,NO,NO,NO,NO,NO,NO,NO,NO,NO,NO,3.5,Basin,,"(33.39478, -111.750085)",Mesa,33.39478,-111.750085
PKBN105,Basin 812,715 N Calle Largo,515,N,Calle,,NO,NO,NO,NO,NO,NO,NO,NO,NO,NO,NO,NO,NO,NO,NO,NO,NO,NO,NO,NO,3.5,Basin,,"(33.4287134, -111.6600009)",Mesa,33.4287134,-111.6600009
PKBN52,Basin 315,844 N Yale,3135,N,Yale,,NO,NO,NO,NO,NO,NO,NO,NO,NO,NO,NO,NO,NO,NO,NO,NO,NO,NO,NO,NO,3.5,Basin,,"(33.430508, -111.774385)",Mesa,33.430508,-111.774385
PKBN5,Basin 602,2646 S Spruce,909,S,Spruce,,NO,NO,NO,NO,NO,NO,NO,NO,NO,NO,NO,NO,NO,NO,NO,NO,NO,NO,NO,NO,3.6,Basin,,"(33.366567, -111.857322)",Mesa,33.366567,-111.857322
PKBN116,Basin 104,3656 E Pueblo Ave,3701,E,Pueblo,Ave,NO,NO,NO,NO,NO,NO,NO,NO,NO,NO,NO,NO,NO,NO,NO,NO,NO,NO,NO,NO,3.6,Basin,,"(33.401573, -111.752882)",Mesa,33.401573,-111.752882
PKBN4,Basin 606,1834 S Vineyard,755,S,Vineyard,,NO,NO,NO,NO,NO,NO,NO,NO,NO,NO,NO,NO,NO,NO,NO,NO,NO,NO,NO,NO,3.7,Basin,,"(33.3817467, -111.8436289)",Mesa,33.3817467,-111.8436289
PKBN80,Basin 712,6045 E Encanto St,5121,E,Encanto, St,NO,NO,NO,NO,NO,NO,NO,NO,NO,NO,NO,NO,NO,NO,NO,NO,NO,NO,NO,NO,3.8,Basin,,"(33.433253, -111.7007566)",Mesa,33.433253,-111.7007566
PKBN68,Basin 725,545 N Val Vista Dr,4213,N,Val Vista,Dr,NO,NO,NO,NO,NO,NO,NO,NO,NO,NO,NO,NO,NO,NO,NO,NO,NO,NO,NO,NO,3.9,Basin,,"(33.4261409, -111.7519072)",Mesa,33.4261409,-111.7519072
PKBN91,Basin 730,553 N Quail,2205,N,Quail,,NO,NO,NO,NO,NO,NO,NO,NO,NO,NO,NO,NO,NO,NO,NO,NO,NO,NO,NO,NO,3.9,Basin,,"(33.425664, -111.7311468)",Mesa,33.425664,-111.7311468
PKBN135,Aripine,915 S Horne,5032,S,Horne,,NO,NO,NO,NO,NO,NO,NO,NO,NO,NO,NO,NO,NO,NO,NO,NO,NO,NO,NO,NO,4.1,Basin,,"(33.398031, -111.813462)",Mesa,33.398031,-111.813462
PKBN108,Basin 805,459 N 81st St,7026,N,81st,St,NO,NO,NO,NO,NO,NO,NO,NO,NO,NO,NO,NO,NO,NO,NO,NO,NO,NO,NO,NO,4.1,Basin,,"(33.4233419, -111.6560436)",Mesa,33.4233419,-111.6560436
PKBN67,Basin 704,564 N Greenfield Rd,601,N,Greenfield,Rd,NO,NO,NO,NO,NO,NO,NO,NO,NO,NO,NO,NO,NO,NO,NO,NO,NO,NO,NO,NO,4.1,Basin,,"(33.426158, -111.738888)",Mesa,33.426158,-111.738888
PKBN87,Basin 714,6023 E Ivy St,6313,E,Ivy, St,NO,NO,NO,NO,NO,NO,NO,NO,NO,NO,NO,NO,NO,NO,NO,NO,NO,NO,NO,NO,4.2,Basin,,"(33.445291, -111.700729)",Mesa,33.445291,-111.700729
PKPK54,Evergreen,328 W 5th St,328,W,5th,St,lighted,NO,YES,"non-reservable, shaded",NO,"lighted, concrete",YES,NO,NO,NO,NO,246 ft,NO,NO,NO,NO,NO,NO,NO,NO,4.3,Park,http://www.mesaparks.com/home/showdocument?id=6234,"(33.424641, -111.838835)",Mesa,33.424641,-111.838835
PKBN64,Ranch West,2110 E Jacinto Ave,2110,E,Jacinto,Ave,NO,NO,NO,NO,NO,NO,NO,NO,NO,NO,NO,NO,NO,NO,NO,NO,NO,NO,NO,NO,4.3,Basin,,"(33.38208, -111.78603)",Mesa,33.38208,-111.78603
PKBN102,Basin 806,8015 E Enrose St,459,E,Enrose, St,NO,NO,NO,NO,NO,NO,NO,NO,NO,NO,NO,NO,NO,NO,NO,NO,NO,NO,NO,NO,4.5,Basin,,"(33.4313029, -111.7033955)",Mesa,33.4313029,-111.7033955
PKBN127,Basin 113,11402 E Ramona Ave,9850,E,Ramona, Ave,NO,NO,NO,NO,NO,NO,NO,NO,NO,NO,NO,NO,NO,NO,NO,NO,NO,NO,NO,NO,4.5,Basin,,"(33.3386358, -111.5886458)",Mesa,33.3386358,-111.5886458
PKBN104,Basin 811,713 N Palo Verde,8045,N,Palo,,NO,NO,NO,NO,NO,NO,NO,NO,NO,NO,NO,NO,NO,NO,NO,NO,NO,NO,NO,NO,4.8,Basin,,"(33.4282884, -111.6627481)",Mesa,33.4282884,-111.6627481
PKBN133,Basin 818,7555 E McDowell Rd,9330,E,McDowell, Rd,NO,NO,NO,NO,NO,NO,NO,NO,NO,NO,NO,NO,NO,NO,NO,NO,NO,NO,NO,NO,4.8,Basin,,"(33.465168, -111.667914)",Mesa,33.465168,-111.667914
PKPK29,Valencia,634 N Quail,634,N,Quail,,lighted,NO,YES,"non-reservable, shaded",NO,"lighted, sand",NO,NO,YES,NO,NO,NO,NO,NO,NO,NO,NO,NO,NO,NO,5,Park,http://www.mesaparks.com/home/showdocument?id=6314,"(33.4271453, -111.7321317)",Mesa,33.4271453,-111.7321317
PKPK63,Chelsea ,145 S 40th St,145,S,40th,St,lighted,NO,YES,"non-reservable, shaded",NO,"lighted, concrete",NO,NO,YES,NO,NO,NO,NO,NO,NO,NO,NO,NO,NO,NO,5,Park,,"(33.4125234, -111.7450588)",Mesa,33.4125234,-111.7450588
PKBN20,Basin 419,231 E Glencove St,1234,E,Glencove,St,NO,NO,NO,NO,NO,NO,NO,NO,NO,NO,NO,NO,NO,NO,NO,NO,NO,NO,NO,NO,5,Basin,,"(33.437555, -111.826141)",Mesa,33.437555,-111.826141
PKPK28,Princess,4461 E Princess Dr,4461,E,Princess, Dr,lighted,NO,YES,"non-reservable, shaded",YES,"lighted, concrete",NO,NO,shaded,NO,NO,NO,NO,NO,NO,NO,NO,NO,NO,NO,5,Park,http://www.mesaparks.com/home/showdocument?id=6288,"(33.440717, -111.73487)",Mesa,33.440717,-111.73487
PKPK8,Candlelight ,1540 N Barkley,1540,N,Barkley,,NO,NO,YES,"non-reservable, shaded",YES,sand,NO,YES,YES,NO,NO,NO,NO,NO,NO,NO,NO,NO,NO,NO,5,Park,,"(33.4429263, -111.799251)",Mesa,33.4429263,-111.799251
PKPK69,Marlborough Mesa,3105 S Alma School Rd,3105,S,Alma School, Rd,NO,NO,YES,"non-reservable, shaded",NO,NO,NO,NO,YES,NO,NO,NO,NO,NO,NO,NO,NO,NO,NO,NO,5,Park,http://www.mesaparks.com/home/showdocument?id=17263,"(33.3578819, -111.8581737)",Mesa,33.3578819,-111.8581737
PKBN23,Basin 418,1234 N Horne,821,N,Horne,,NO,NO,NO,NO,NO,NO,NO,NO,NO,NO,NO,NO,NO,NO,NO,NO,NO,NO,NO,NO,5.2,Basin,,"(33.437602, -111.815015)",Mesa,33.437602,-111.815015
PKBN79,Basin 731,553 N 62nd St,553,N,62nd,St,NO,NO,NO,NO,NO,NO,NO,NO,NO,NO,NO,NO,NO,NO,NO,NO,NO,NO,NO,NO,5.4,Basin,,"(33.4262499, -111.6953547)",Mesa,33.4262499,-111.6953547
PKBN89,Basin 729,2205 N 64th St,2805,N,64th, St,NO,NO,NO,NO,NO,NO,NO,NO,NO,NO,NO,NO,NO,NO,NO,NO,NO,NO,NO,NO,5.4,Basin,,"(33.4562403, -111.6912958)",Mesa,33.4562403,-111.6912958
PKPK23,Summit,6237 E Virginia,6237,E,Virginia,,lighted,NO,YES,"non-reservable, shaded",NO,"lighted, sand",NO,NO,YES,NO,walk,NO,NO,NO,YES,NO,NO,NO,NO,NO,6,Park,http://www.mesaparks.com/home/showdocument?id=6312,"(33.4764388, -111.6960362)",Mesa,33.4764388,-111.6960362
PKBN90,Basin 705,552 N Quail,564,N,Quail,,NO,NO,NO,NO,NO,NO,NO,NO,NO,NO,NO,NO,NO,NO,NO,NO,NO,NO,NO,NO,6,Basin,,"(33.425663, -111.7313424)",Mesa,33.425663,-111.7313424
PKPK44,Chaparral ,1635 N Gilbert Rd,1635,N,Gilbert, Rd,lighted,NO,YES,"non-reservable, shaded",YES,NO,NO,NO,YES,NO,NO,NO,NO,NO,NO,NO,NO,NO,NO,NO,6,Park,,"(33.445488, -111.786558)",Mesa,33.445488,-111.786558
PKPK39,Enid,5319 E Enid,5319,E,Enid,,YES,NO,YES,"non-reservable, shaded",NO,YES,NO,NO,YES,NO,NO,NO,NO,NO,NO,NO,NO,NO,NO,NO,6,Park,,"(33.3977239, -111.716797)",Mesa,33.3977239,-111.716797
PKBN53,Basin 320,602 N Lindsay Rd,404,N,Lindsay,Rd,NO,NO,NO,NO,NO,NO,NO,NO,NO,NO,NO,NO,NO,NO,NO,NO,NO,NO,NO,NO,6,Basin,,"(33.4260619, -111.7730001)",Mesa,33.4260619,-111.7730001
PKBN59,Basin 322,544 N Val Vista Dr,3443,N,Val Vista,Dr,NO,NO,NO,NO,NO,NO,NO,NO,NO,NO,NO,NO,NO,NO,NO,NO,NO,NO,NO,NO,6.1,Basin,,"(33.426145, -111.755488)",Mesa,33.426145,-111.755488
PKBN70,Basin 703,601 N Norfolk,462,N,Norfolk,,NO,NO,NO,NO,NO,NO,NO,NO,NO,NO,NO,NO,NO,NO,NO,NO,NO,NO,NO,NO,6.8,Basin,,"(33.426149, -111.742843)",Mesa,33.426149,-111.742843
PKBN109,Basin 817,650 N 90th St,416,N,90th,St,NO,NO,NO,NO,NO,NO,NO,NO,NO,NO,NO,NO,NO,NO,NO,NO,NO,NO,NO,NO,6.9,Basin,,"(33.427467, -111.6378871)",Mesa,33.427467,-111.6378871
PKPK47,Meadowgreen,2821 E Pueblo Ave,2821,E,Pueblo,Ave,NO,NO,YES,NO,NO,NO,NO,NO,NO,NO,NO,NO,NO,NO,YES,NO,NO,NO,NO,NO,7,Park,http://www.mesaparks.com/home/showdocument?id=6272,"(33.4012697, -111.7701678)",Mesa,33.4012697,-111.7701678
PKBN101,Basin 803,1240 N Sterling,1228,N,Sterling,,NO,NO,NO,NO,NO,NO,NO,NO,NO,NO,NO,NO,NO,NO,NO,NO,NO,NO,NO,NO,7.2,Basin,,"(33.437472, -111.670355)",Mesa,33.437472,-111.670355
PKBN84,Basin 723,6420 E Brown Rd,6015,E,Brown, Rd,NO,NO,NO,NO,NO,NO,NO,NO,NO,NO,NO,NO,NO,NO,NO,NO,NO,NO,NO,NO,7.3,Basin,,"(33.4373849, -111.6926964)",Mesa,33.4373849,-111.6926964
PKPK60,Guerrero Rotary,205 W 8th Ave,205,W,8th,Ave,lighted,NO,shaded,"non-reservable, shaded",NO,NO,YES,NO,YES,NO,walk ,NO,NO,NO,YES,NO,NO,NO,NO,YES,7.5,Park,https://www.mesaaz.gov/home/showdocument?id=6254,"(33.4000127, -111.8356655)",Mesa,33.4000127,-111.8356655
PKBN92,Basin 719,3211 N Recker Rd,1628,N,Recker, Rd,NO,NO,NO,NO,NO,NO,NO,NO,NO,NO,NO,NO,NO,NO,NO,NO,NO,NO,NO,NO,7.6,Basin,,"(33.474066, -111.699912)",Mesa,33.474066,-111.699912
PKPK32,Ensenada,6413 E Elmwood St,6413,E,Elmwood, St,NO,NO,YES,"non-reservable, shaded",NO,NO,NO,NO,YES,NO,NO,NO,NO,NO,NO,NO,NO,NO,NO,NO,7.6,Park,,"(33.4332076, -111.692741)",Mesa,33.4332076,-111.692741
PKPK43,Hermosa Vista,2255 N Lindsay Rd,2255,N,Lindsay, Rd,lighted,NO,YES,"non-reservable, shaded",YES,NO,NO,YES,shaded,NO,NO,NO,NO,NO,NO,NO,NO,NO,NO,NO,8,Park,http://www.mesaparks.com/home/showdocument?id=6260,"(33.4560959, -111.769459)",Mesa,33.4560959,-111.769459
PKPK42,Sheepherders,2455 E McDowell Rd,2455,E,McDowell, Rd,YES,NO,YES,"non-reservable, shaded",YES,"lighted, concrete",NO,NO,YES,NO,NO,NO,NO,NO,NO,NO,NO,NO,NO,NO,8,Park,http://www.mesaparks.com/home/showdocument?id=6302,"(33.466322, -111.778151)",Mesa,33.466322,-111.778151
PKPK11,Woodglen,2342 S Beverly,2342,S,Beverly,,NO,NO,YES,"non-reservable, shaded",NO,NO,NO,YES,YES,NO,NO,NO,NO,NO,NO,NO,NO,NO,NO,NO,8,Park,http://www.mesaparks.com/home/showdocument?id=6322,"(33.372351, -111.855194)",Mesa,33.372351,-111.855194
PKPK25,Alta Mesa,1910 N Alta Mesa Dr,1910,N,Alta Mesa, Dr,lighted,NO,YES,"non-reservable, shaded",YES,"lighted, sand",NO,NO,YES,NO,NO,NO,NO,NO,NO,NO,NO,NO,NO,YES,8.2,Park,https://www.mesaaz.gov/home/showdocument?id=6202,"(33.449874, -111.711141)",Mesa,33.449874,-111.711141
PKPK83,Mariposa,2351 S Hawes Rd,2351,S,Hawes, Rd,NO,NO,shaded,"non-reservable, shaded",NO,NO,NO,YES,YES,NO,NO,NO,NO,NO,NO,NO,NO,NO,NO,YES,9,Park,,"(33.3742438, -111.6535172)",Mesa,33.3742438,-111.6535172
PKBN130,Basin 114,10226 E Elliot Rd,9750,E,Elliot,Rd,NO,NO,NO,NO,NO,NO,NO,NO,NO,NO,NO,NO,NO,NO,NO,NO,NO,NO,NO,NO,9,Basin,,"(33.3500241, -111.6152265)",Mesa,33.3500241,-111.6152265
PKBN113,Basin 109,250 N 96th St,10302,N,96th,St,NO,NO,NO,NO,NO,NO,NO,NO,NO,NO,NO,NO,NO,NO,NO,NO,NO,NO,NO,NO,9.2,Basin,,"(33.4203464, -111.6246039)",Mesa,33.4203464,-111.6246039
PKBN74,Basin 711,5121 E Decatur St,839,E,Decatur, St,NO,NO,NO,NO,NO,NO,NO,NO,NO,NO,NO,NO,NO,NO,NO,NO,NO,NO,NO,NO,9.6,Basin,,"(33.426254, -111.722619)",Mesa,33.426254,-111.722619
PKPK34,Augusta Ranch,9455 E Neville Ave,9455,E,Neville,Ave,YES,NO,YES,"non-reservable, shaded",NO,sand,NO,YES,YES,NO,NO,NO,NO,NO,NO,NO,NO,NO,NO,NO,10,Park,,"(33.3668582, -111.6298327)",Mesa,33.3668582,-111.6298327
PKPK49,Silvergate,2121 E Enid Ave,2121,E,Enid,Ave,lighted,NO,YES,"non-reservable, shaded",YES,NO,NO,NO,YES,NO,NO,NO,NO,NO,NO,NO,NO,NO,NO,NO,10,Park,http://www.mesaparks.com/home/showdocument?id=6306,"(33.397675, -111.7839675)",Mesa,33.397675,-111.7839675
PKPK46,Los Alamos,2840 E Covina,2840,E,Covina,,NO,NO,YES,NO,NO,NO,NO,NO,YES,NO,NO,NO,NO,NO,NO,NO,NO,NO,NO,NO,10,Park,http://www.mesaparks.com/home/showdocument?id=6270,"(33.426068, -111.769885)",Mesa,33.426068,-111.769885
PKPK5,Whitman,1750 N Grand,1750,N,Grand,,lighted,NO,YES,"non-reservable, shaded",NO,"lighted,concrete",NO,NO,YES,NO,NO,NO,NO,NO,NO,NO,NO,NO,NO,NO,10,Park,http://www.mesaparks.com/home/showdocument?id=6320,"(33.446953, -111.836587)",Mesa,33.446953,-111.836587
PKBN114,Basin 110,10045 E Akron St,11228,E,Akron,St,NO,NO,NO,NO,NO,NO,NO,NO,NO,NO,NO,NO,NO,NO,NO,NO,NO,NO,NO,NO,10.7,Basin,,"(33.4173803, -111.6133064)",Mesa,33.4173803,-111.6133064
PKPK36,Golden Hills,7256 E Pueblo Ave,7256,E,Pueblo,Ave,NO,NO,shaded,"non-reservable, shaded",NO,NO,NO,NO,YES,NO,NO,NO,NO,NO,NO,NO,NO,NO,NO,NO,11,Park,,"(33.4006555, -111.6746423)",Mesa,33.4006555,-111.6746423
PKPK12,Rancho del Mar,748 W Guadalupe Rd,748,W,Guadalupe,Rd,lighted,NO,shaded,"non-reservable, shaded",NO,"lighted, sand",NO,NO,NO,NO,NO,NO,NO,NO,NO,NO,NO,NO,NO,NO,11,Park,http://www.mesaparks.com/home/showdocument?id=6292,"(33.3667916, -111.8498253)",Mesa,33.3667916,-111.8498253
PKBN129,Basin 116,9750 E Elliot Rd,2616,E,Elliot, Rd,NO,NO,NO,NO,NO,NO,NO,NO,NO,NO,NO,NO,NO,NO,NO,NO,NO,NO,NO,NO,12.3,Basin,,"(33.3500704, -111.6214696)",Mesa,33.3500704,-111.6214696
PKBN131,Basin 115,9850 E Elliot Rd,6763,E,Elliot, Rd,NO,NO,NO,NO,NO,NO,NO,NO,NO,NO,NO,NO,NO,NO,NO,NO,NO,NO,NO,NO,12.6,Basin,,"(33.3510735, -111.6214562)",Mesa,33.3510735,-111.6214562
PKPK504,Eastmark Great,5100 S Eastmark Parkway,5100,S,Eastmark,,YES,Shaded,YES,"non-reservable, shaded",NO,NO,YES,NO,NO,YES,walk,NO,NO,NO,NO,NO,NO,NO,NO,NO,12.7,Park,,"(33.3227394, -111.6157082)",Mesa,33.3227394,-111.6157082
PKBN110,Basin 816,9330 E University Dr,6812,E,University, Dr,NO,NO,NO,NO,NO,NO,NO,NO,NO,NO,NO,NO,NO,NO,NO,NO,NO,NO,NO,NO,14,Basin,,"(33.4231834, -111.6300725)",Mesa,33.4231834,-111.6300725
PKPK51,Kingsborough,2311 E Holmes Ave,2311,E,Holmes,Ave,lighted,NO,YES,"non-reservable, shaded",YES,YES,NO,NO,shaded,NO,NO,NO,NO,NO,NO,NO,NO,NO,NO,NO,14,Park,http://www.mesaparks.com/home/showdocument?id=6266,"(33.3881249, -111.7819512)",Mesa,33.3881249,-111.7819512
PKPK50,Harmony,1434 S 32nd St,1434,S,32nd, St,NO,NO,YES,"non-reservable, shaded",NO,NO,NO,YES,YES,NO,NO,NO,NO,NO,NO,NO,NO,NO,NO,NO,14,Park,http://www.mesaparks.com/home/showdocument?id=6256,"(33.3895472, -111.7618989)",Mesa,33.3895472,-111.7618989
PKPK17,Emerald,1455 S Harris Dr,1455,S,Harris, Dr,lighted,NO,shaded,"non-reservable, shaded",NO,"lighted, concrete",NO,NO,YES,YES,NO,NO,NO,NO,NO,YES,NO,NO,NO,NO,16.2,Park,http://www.mesaparks.com/home/showdocument?id=13074,"(33.3889054, -111.7959185)",Mesa,33.3889054,-111.7959185
PKPK37,Jefferson,306 S Jefferson Ave,306,S,Jefferson,Ave,lighted,NO,YES,"reservable, non-reservable, shaded",YES,"lighted, sand",YES,YES,shaded,NO,NO,"lighted, 294 ft",NO,NO,NO,NO,NO,NO,NO,NO,16.5,Park,http://www.mesaparks.com/home/showdocument?id=6264,"(33.409798, -111.679353)",Mesa,33.409798,-111.679353
PKPK16,Heritage,1501 S Pima,1501,S,Pima,,lighted,NO,YES,"non-reservable, shaded",NO,"lighted, sand",NO,NO,YES,NO,NO,NO,NO,NO,NO,NO,NO,NO,NO,NO,17,Park,http://www.mesaparks.com/home/showdocument?id=6258,"(33.3876111, -111.8270253)",Mesa,33.3876111,-111.8270253
PKPK87,Fiesta Sports,936 S Extension Rd,936,S,Extension,Rd,NO,NO,shaded,NO,NO,NO,YES,NO,YES,NO,NO,"2 softball, 2 youth",YES,NO,NO,NO,NO,NO,NO,NO,17,Park,https://www.mesaaz.gov/home/showdocument?id=12820,"(33.3981374, -111.8506784)",Mesa,33.3981374,-111.8506784
PKPK40,Holmes,1450 S Greenfield Rd,1450,S,Greenfield, Rd,NO,NO,NO,NO,NO,NO,NO,NO,NO,NO,NO,NO,NO,NO,NO,NO,NO,NO,NO,NO,17.2,Park,,"(33.3884534, -111.738016)",Mesa,33.3884534,-111.738016
PKPK13,Dobson Ranch,2359 S Dobson Rd,2359,S,Dobson, Rd,"four, 1/2 court",NO,YES,"reservable, non-reservable, shaded",NO,NO,YES,NO,YES,YES,walk,NO,NO,NO,NO,NO,NO,NO,NO,NO,17.3,Park,http://www.mesaparks.com/home/showdocument?id=6224,"(33.371558, -111.8788164)",Mesa,33.371558,-111.8788164
PKPK45,Mountain View,845 N Lindsay Rd,845,N,Lindsay,Rd,lighted,NO,YES,"non-reservable, shaded",YES,"lighted, concrete",NO,NO,YES,NO,walk,NO,NO,NO,YES,NO,NO,NO,NO,YES,17.4,Park,http://www.mesaparks.com/home/showdocument?id=6276,"(33.4311563, -111.7697053)",Mesa,33.4311563,-111.7697053
PKBLD18,Convention Center and Amphitheater,263 N Center,263,N,Center,,NO,NO,NO,NO,NO,NO,NO,NO,NO,NO,NO,NO,NO,NO,NO,NO,NO,NO,NO,NO,17.5,Convention Center,,"(33.421197, -111.83084)",Mesa,33.421197,-111.83084
PKBN115,Basin 111,10302 E Southern Ave,11402,E,Southern, Ave,NO,NO,NO,NO,NO,NO,NO,NO,NO,NO,NO,NO,NO,NO,NO,NO,NO,NO,NO,NO,17.5,Basin,,"(33.3949465, -111.6090599)",Mesa,33.3949465,-111.6090599
PKPK57,Pioneer,526 E Main St,526,E,Main,St,lighted,YES,YES,"reservable, non-reservable, shaded",YES,NO,YES,YES,YES,NO,NO,NO,NO,NO,NO,NO,NO,NO,NO,NO,17.8,Park,http://www.mesaparks.com/home/showdocument?id=19337,"(33.416972, -111.819674)",Mesa,33.416972,-111.819674
PKPK14,Palo Verde,3135 S Dobson Rd,3135,S,Dobson, Rd,lighted,NO,YES,"non-reservable, shaded",NO,NO,NO,YES,YES,NO,NO,NO,NO,NO,YES,NO,NO,NO,NO,NO,18,Park,http://www.mesaparks.com/home/showdocument?id=6278,"(33.357841, -111.874492)",Mesa,33.357841,-111.874492
PKPK19,Reed,1631 E Broadway,1631,E,Broadway,,lighted,NO,YES,"reservable, non-reservable, shaded",NO,NO,NO,NO,shaded,NO,walk,NO,NO,NO,NO,NO,NO,NO,NO,NO,19,Park,http://www.mesaparks.com/home/showdocument?id=6298,"(33.406036, -111.795761)",Mesa,33.406036,-111.795761
PKPK38,Greenfield,4105 E Diamond Ave,4105,E,Diamond,Ave,NO,NO,shaded,"reservable, non-reservable, shaded",NO,NO,YES,YES,YES,YES,NO,NO,NO,NO,NO,NO,NO,NO,NO,YES,20.7,Park,http://www.mesaparks.com/home/showdocument?id=6252,"(33.4018703, -111.739798)",Mesa,33.4018703,-111.739798
PKPK35,Monterey,7045 E Monterey Ave,7045,E,Monterey,Ave,lighted,NO,YES,"non-reservable, shaded",YES,"lighted, concrete",NO,YES,YES,NO,walk,NO,NO,NO,NO,NO,NO,NO,NO,NO,21,Park,http://www.mesaparks.com/home/showdocument?id=6274,"(33.3660726, -111.6816795)",Mesa,33.3660726,-111.6816795
PKPK18,Sherwood,1453 S Horne,1453,S,Horne,,NO,NO,YES,"non-reservable, shaded",NO,NO,NO,NO,shaded,NO,NO,NO,NO,NO,NO,NO,NO,NO,NO,YES,22,Park,http://www.mesaparks.com/home/showdocument?id=6304,"(33.3875847, -111.8118641)",Mesa,33.3875847,-111.8118641
PKPK20,Falcon Hill,7222 E Jensen St,7222,E,Jensen, St,lighted,NO,YES,"non-reservable, shaded",YES,"lighted, sand",NO,NO,YES,NO,NO,NO,NO,NO,NO,NO,NO,NO,NO,NO,22.1,Park,,"(33.448831, -111.67464)",Mesa,33.448831,-111.67464
PKPK15,Carriage Lane,3140 S Carriage Ln,3140,S,Carriage, Ln,lighted,NO,shaded,"non-reservable, shaded",NO,YES,YES,YES,YES,YES,NO,NO,NO,on-leash,NO,NO,NO,NO,NO,NO,23,Park,,"(33.357702, -111.890752)",Mesa,33.357702,-111.890752
PKPK10,Kleinman,710 S Extension Rd,710,S,Extension,Rd,lighted,NO,YES,"reservable, non-reservable, shaded",NO,"lighted, sand",YES,NO,shaded,NO,walk,"2 lighted, 280 ft",NO,NO,NO,NO,lighted,lighted,NO,NO,24.6,Park,,"(33.401918, -111.850506)",Mesa,33.401918,-111.850506
PKPK48,Countryside ,3130 E Southern,3130,E,Southern,,"lighted, two",NO,shaded,"reservable, non-reservable, shaded",NO,"lighted, beach",YES,YES,YES,NO,"walk, bike","lighted, 60 ft",NO,off-leash,NO,NO,NO,NO,NO,NO,28,Park,http://www.mesaparks.com/home/showdocument?id=6220,"(33.3944188, -111.7625856)",Mesa,33.3944188,-111.7625856
PKPK86,Eagles,828 E Broadway,825,E,Broadway,,NO,NO,YES,"non-reservable, shaded",NO,NO,YES,YES,YES,NO,YES,NO,NO,NO,4 lighted,NO,NO,NO,NO,YES,28.3,Park,,"(33.408244, -111.813699)",Mesa,33.408244,-111.813699
PKPK33,Skyline,655 S Crismon Rd,655,S,Crismon,Rd,lighted,NO,shaded,"reservable, non-reservable, shaded",NO,sand,YES,NO,shaded,NO,NO,"lighted, 4 softball",NO,NO,NO,NO,NO,NO,NO,NO,30,Park,http://www.mesaparks.com/home/showdocument?id=6308,"(33.4023394, -111.6123911)",Mesa,33.4023394,-111.6123911
PKPK7,Park of the Canals,1710 N Horne,1710,N,Horne,,NO,NO,YES,"reservable, non-reservable, shaded",NO,NO,YES,NO,YES,NO,walk,NO,NO,NO,NO,NO,NO,NO,NO,NO,31,Park,http://www.mesaparks.com/home/showdocument?id=6280,"(33.443226, -111.816851)",Mesa,33.443226,-111.816851
PKPK53,Fitch,651 N Center ,651,N,Center,,lighted,NO,YES,"reservable, non-reservable, shaded",NO,NO,YES,NO,YES,NO,NO,4 lighted,NO,NO,NO,NO,NO,NO,"reservable, non-reservable",NO,31,Park,http://www.mesaparks.com/home/showdocument?id=6242,"(33.428764, -111.829657)",Mesa,33.428764,-111.829657
PKPK22,Quail Run,4155 E Virginia St,4155,E,Virginia, St,NO,NO,shaded,"non-reservable, shaded",NO,NO,YES,YES,YES,NO,NO,"lighted, 2 youth softball, 2 youth baseball",YES,off-leash,4 lighted,NO,NO,NO,NO,NO,40,Park,http://www.mesaparks.com/home/showdocument?id=6288,"(33.4782752, -111.7400121)",Mesa,33.4782752,-111.7400121
PKPK6,Hohokam Stadium,1235 N Center,1235,N,Center,,NO,NO,NO,NO,NO,NO,YES,NO,NO,NO,NO,y,YES,NO,YES,NO,NO,NO,NO,NO,42.6,Park,http://www.mesaaz.gov/things-to-do/hohokam-stadium,"(33.438626, -111.8302267)",Mesa,33.438626,-111.8302267
PKPK27,Gene Autry,4125 E Mckellips Rd,4125,E,Mckellips, Rd,NO,NO,shaded,"reservable, non-reservable, shaded",YES,"lighted, sand",YES,YES,NO,NO,NO,lighted ,YES,NO,NO,NO,lighted,NO,NO,NO,47,Park,http://www.mesaparks.com/home/showdocument?id=21013,"(33.4507713, -111.7431172)",Mesa,33.4507713,-111.7431172
PKPK82,Desert Arroyo,9320 E McKellips Rd,9320,E,McKellips, Rd,NO,NO,YES,"non-reservable, shaded",NO,NO,NO,NO,NO,NO,"walk, bike",NO,NO,NO,NO,NO,NO,NO,NO,NO,58,Park,,"(33.4536655, -111.6300913)",Mesa,33.4536655,-111.6300913
PKPK76,Riverview,2100 W Rio Salado Parkway,2100,W,Riverview,,NO,YES,shaded,"reservable, non-reservable, shaded",NO,NO,YES,YES,shaded,YES,"walk, bike",NO,NO,NO,YES,NO,NO,NO,NO,NO,137.1,Park,http://www.mesaparks.com/home/showdocument?id=19897,"(33.4310511, -111.8756309)",Mesa,33.4310511,-111.8756309
PKGC1,Dobson Ranch Golf Course,2155 S Dobson Rd,2155,S,Dobson,Rd,NO,NO,NO,NO,NO,NO,NO,NO,NO,NO,NO,NO,NO,NO,NO,NO,NO,NO,NO,NO,143.9201217,Golf,,"(33.375213, -111.878155)",Mesa,33.375213,-111.878155
PKPK21,Red Mountain,7745 E Brown Rd,7745,E,Brown, Rd,lighted,NO,shaded,"reservable, non-reservable, shaded",NO,"lighted, concrete",YES,NO,YES,YES,walk,"lighted, 3 baseball, 4 softball",YES,NO,6 lighted,YES,NO,NO,NO,NO,581.7,Park,http://www.mesaparks.com/home/showdocument?id=6298,"(33.434382, -111.669402)",Mesa,33.434382,-111.669402
PKBLD5,Washington Activity Center,44 E 5th St,44,E,5th,St,NO,NO,NO,NO,NO,NO,NO,NO,NO,NO,NO,NO,NO,NO,NO,NO,NO,NO,NO,NO,,Recreation,,"(33.424285, -111.830026)",Mesa,33.424285,-111.830026
PKBLD37,Autry Tennis Complex,"4125 E Mckellips Rd, Bldg 1",4125,E,Mckellips,Rd,NO,NO,NO,NO,NO,NO,NO,NO,NO,NO,NO,NO,NO,NO,NO,NO,NO,NO,NO,NO,,Tennis,,"(33.450807, -111.743117)",Mesa,33.450807,-111.743117
PKBLD17,Mesa Amphitheatre,263 N Center,263,N,Center,,NO,NO,NO,NO,NO,NO,NO,NO,NO,NO,NO,NO,NO,NO,NO,NO,NO,NO,NO,NO,,Ampheater,,"(33.421027, -111.829542)",Mesa,33.421027,-111.829542
PKBLD75,Eagles Community Center,828 E Broadway,828,E,Broadway,,NO,NO,NO,NO,NO,NO,NO,NO,NO,NO,NO,NO,NO,NO,NO,NO,NO,NO,NO,NO,,Recreation,,"(33.408394, -111.813487)",Mesa,33.408394,-111.813487
PKBLD1,Red Mountain Center,7550 E Adobe,7550,E,Adobe,,NO,NO,NO,NO,NO,NO,NO,NO,NO,NO,NO,NO,NO,NO,NO,NO,NO,NO,NO,NO,,Recreation,,"(33.731817, -111.667394)",Mesa,33.731817,-111.667394
