X,Y,Location,Juris,Status,Lat,Long
-111.8704333,33.4158977,Sycamore/Main St TC Bay 4,Mesa,Active,33.415903,-111.870444
-111.7880761,33.41412466,NB S GILBERT RD FS E ALDER CIR E MAIN ST,Mesa,Active,33.41413,-111.788087
-111.8737244,33.4146217,EB MAIN ST & FS DOBSON RD,Mesa,Active,33.414627,-111.873735
-111.8444352,33.43395077,NB DATE & FS 10TH ST,Mesa,Active,33.433956,-111.844446
-111.8042402,33.4153557,WB MAIN ST & NS STAPLEY DR,Mesa,Active,33.415361,-111.804251
-111.7212234,33.40825254,EB Broadway Rd AT 5121 East,Mesa,Active,33.408258,-111.721234
-111.6867433,33.32216582,NB Power Rd FS Ray Rd,Mesa,Active,33.322171,-111.686754
-111.8703542,33.4155379,Sycamore/Main St TC Bay 6,Mesa,Active,33.415543,-111.870365
-111.6892602,33.38766779,Superstition Springs TC Bay 2,Mesa,Active,33.387673,-111.689271
-111.6701563,33.42228585,EB University Dr FS 75th St,Mesa,Active,33.422291,-111.670167
-111.8696122,33.42954401,WB Rio Salado Pkwy FS Decatur St,Mesa,Active,33.429549,-111.869623
-111.8686313,33.42929765,EB Rio Salado Pkwy FS Decatur St,Mesa,Active,33.429303,-111.868642
-111.8313033,33.42416583,NB CENTER ST & FS 5TH ST,Mesa,Active,33.424171,-111.831314
-111.6886731,33.38766973,Superstition Springs TC Bay 4,Mesa,Active,33.387675,-111.688684
-111.6895423,33.38766775,Superstition Springs TC Bay 1,Mesa,Active,33.387673,-111.689553
-111.6889814,33.38766782,Superstition Springs TC Bay 3,Mesa,Active,33.387673,-111.688992
-111.8734933,33.42930879,EB Rio Salado Pkwy FS Dobson Rd,Mesa,Active,33.429314,-111.873504
-111.8298321,33.41713771,EB 1st St & NS Centennial Way,Mesa,Active,33.417143,-111.829843
-111.8556072,33.42930072,EB RIO SALADO PKWY & FS ALMA SCHOOL RD,Mesa,Active,33.429306,-111.855618
-111.8517351,33.42936773,EB RIO SALADO PKWY & FS WESTWOOD,Mesa,Active,33.429373,-111.851746
-111.7013943,33.41362966,EB ARBOR AV & FS RECKER RD,Mesa,Active,33.413635,-111.701405
-111.6970862,33.41265275,EB ARBOR AV & MB RECKER RD,Mesa,Active,33.412658,-111.697097
-111.8901371,33.37832967,EB BASELINE RD & FS DON CARLOS,Mesa,Active,33.378335,-111.890148
-111.8849173,33.37836583,EB BASELINE RD & FS EL DORADO,Mesa,Active,33.378371,-111.884928
-111.6671883,33.37914078,EB BASELINE RD & FS SOSSAMAN RD,Mesa,Active,33.379146,-111.667199
-111.6891032,33.41033879,EB BAYWOOD AV & MB DIEGO CIR,Mesa,Active,33.410344,-111.689114
-111.6877692,33.41055181,WB BAYWOOD AV & MB POWER RD,Mesa,Active,33.410557,-111.68778
-111.7833613,33.40801082,EB BROADWAY RD & FS CHESTNUT,Mesa,Active,33.408016,-111.783372
-111.7277824,33.40822367,EB BROADWAY RD & FS 48TH ST,Mesa,Active,33.408229,-111.727793
-111.7794322,33.40801175,EB BROADWAY RD & FS 24TH ST,Mesa,Active,33.408017,-111.779443
-111.7641284,33.40807276,EB BROADWAY RD & FS 31ST ST,Mesa,Active,33.408078,-111.764139
-111.7620583,33.40809274,EB BROADWAY RD & FS 32ND ST,Mesa,Active,33.408098,-111.762069
-111.7595533,33.40809674,EB BROADWAY RD & FS ALMAR,Mesa,Active,33.408102,-111.759564
-111.7990171,33.40786368,EB BROADWAY RD & FS BARKLEY,Mesa,Active,33.407869,-111.799028
-111.8312001,33.40773583,EB BROADWAY RD & FS CENTER ST,Mesa,Active,33.407741,-111.831211
-111.7876694,33.40792385,EB BROADWAY RD & FS GILBERT RD,Mesa,Active,33.407929,-111.78768
-111.7358381,33.40814689,EB BROADWAY RD & FS GREENFIELD RD,Mesa,Active,33.408152,-111.735849
-111.7183322,33.40819683,EB BROADWAY RD & FS HIGLEY RD,Mesa,Active,33.408202,-111.718343
-111.8165581,33.40771581,EB BROADWAY RD & FS OLIVE,Mesa,Active,33.407721,-111.816569
-111.8137553,33.40774787,EB BROADWAY RD & FS HORNE,Mesa,Active,33.407753,-111.813766
-111.8294702,33.40772968,EB BROADWAY RD & FS LEWIS,Mesa,Active,33.407735,-111.829481
-111.7703162,33.40796478,EB BROADWAY RD & FS LINDSAY RD,Mesa,Active,33.40797,-111.770327
-111.7477334,33.40814689,EB BROADWAY RD & FS MAPLE,Mesa,Active,33.408152,-111.747744
-111.7425793,33.40814389,EB BROADWAY RD & FS NORWALK,Mesa,Active,33.408149,-111.74259
-111.7317293,33.40819691,EB BROADWAY RD & FS QUINN,Mesa,Active,33.408202,-111.73174
-111.7242641,33.40824987,EB BROADWAY RD & FS RACINE,Mesa,Active,33.408255,-111.724275
-111.8093532,33.40777768,EB BROADWAY RD & FS SOLOMON,Mesa,Active,33.407783,-111.809364
-111.8047854,33.4078058,EB BROADWAY RD & FS STAPLEY DR,Mesa,Active,33.407811,-111.804796
-111.7143851,33.40829682,EB BROADWAY RD & FS SUNNYVALE,Mesa,Active,33.408302,-111.714396
-111.7529804,33.40805388,EB BROADWAY RD & FS VAL VISTA DR,Mesa,Active,33.408059,-111.752991
-111.8247382,33.4077128,EB BROADWAY RD & FS WILBUR,Mesa,Active,33.407718,-111.824749
-111.7752523,33.40804471,EB BROADWAY RD & MB ALPINE,Mesa,Active,33.40805,-111.775263
-111.7951682,33.40792565,EB BROADWAY RD & NS WILLIAMS,Mesa,Active,33.407931,-111.795179
-111.8393621,33.43509571,EB BROWN RD & FS COUNTRY CLUB DR,Mesa,Active,33.435101,-111.839373
-111.8352473,33.43497985,EB BROWN RD & FS GRAND,Mesa,Active,33.434985,-111.835258
-111.8426182,33.43505977,EB BROWN RD & 525 WEST,Mesa,Active,33.435065,-111.842629
-111.8265594,33.43484466,EB BROWN RD & FS PASADENA,Mesa,Active,33.43485,-111.82657
-111.8237961,33.43539973,EB BROWN RD & NS MESA DR,Mesa,Active,33.435405,-111.823807
-111.8320333,33.43484165,EB BROWN RD & NS CENTER ST,Mesa,Active,33.434847,-111.832044
-111.8274723,33.38034282,EB JAVALINA AV & FS LEWIS ST,Mesa,Active,33.380348,-111.827483
-111.8305051,33.41493067,EB MAIN ST & FS CENTER ST,Mesa,Active,33.414936,-111.830516
-111.8257003,33.4149069,EB MAIN ST & FS HIBBERT,Mesa,Active,33.414912,-111.825711
-111.8038351,33.4513318,EB MCKELLIPS RD & FS STAPLEY DR,Mesa,Active,33.451337,-111.803846
-111.8096391,33.39323472,EB SOUTHERN AV & FS SOLOMON,Mesa,Active,33.39324,-111.80965
-111.6885814,33.39380483,EB SOUTHERN AV & FS EAST MALL ENTRANCE,Mesa,Active,33.39381,-111.688592
-111.6926151,33.39378084,EB SOUTHERN AV & FS WEST MALL ENTRANCE,Mesa,Active,33.393786,-111.692626
-111.7793502,33.39347068,EB SOUTHERN AV & FS 24TH ST,Mesa,Active,33.393476,-111.779361
-111.7605981,33.39356587,EB SOUTHERN AV & FS 32ND ST,Mesa,Active,33.393571,-111.760609
-111.7472903,33.39360587,EB SOUTHERN AV & FS 39TH ST,Mesa,Active,33.393611,-111.747301
-111.7142053,33.39371075,EB SOUTHERN AV & FS 54TH ST,Mesa,Active,33.393716,-111.714216
-111.7836063,33.39348576,EB SOUTHERN AV & FS CHESTNUT,Mesa,Active,33.393491,-111.783617
-111.8004613,33.39330068,EB SOUTHERN AV & FS DORAN,Mesa,Active,33.393306,-111.800472
-111.7876024,33.39340176,EB SOUTHERN AV & FS GILBERT RD,Mesa,Active,33.393407,-111.787613
-111.7926403,33.39339178,EB SOUTHERN AV & FS HALL,Mesa,Active,33.393397,-111.792651
-111.7964391,33.3933367,EB SOUTHERN AV & FS HARRIS DR,Mesa,Active,33.393342,-111.79645
-111.8182221,33.39322369,EB SOUTHERN AV & FS HOBSON,Mesa,Active,33.393229,-111.818233
-111.8133481,33.39322467,EB SOUTHERN AV & FS HORNE,Mesa,Active,33.39323,-111.813359
-111.7014453,33.39374672,EB SOUTHERN AV & FS LEISURE WORLD BLVD,Mesa,Active,33.393752,-111.701456
-111.7704694,33.3934369,EB SOUTHERN AV & FS LINDSAY RD,Mesa,Active,33.393442,-111.77048
-111.8223791,33.39313375,EB SOUTHERN AV & FS MESA DR,Mesa,Active,33.393139,-111.82239
-111.7412213,33.39363371,EB SOUTHERN AV & FS NORFOLK,Mesa,Active,33.393639,-111.741232
-111.8262062,33.39322179,EB SOUTHERN AV & FS PASADENA,Mesa,Active,33.393227,-111.826217
-111.8291744,33.39320771,EB SOUTHERN AV & FS PIMA,Mesa,Active,33.393213,-111.829185
-111.7084373,33.39375481,EB SOUTHERN AV & FS SLATER,Mesa,Active,33.39376,-111.708448
-111.8048551,33.39324178,EB SOUTHERN AV & FS STAPLEY DR,Mesa,Active,33.393247,-111.804866
-111.6970372,33.39373268,EB SOUTHERN AV & FS SUPERSTITION SPRING BLVD,Mesa,Active,33.393738,-111.697048
-111.7521452,33.3935599,EB SOUTHERN AV & FS VAL VISTA DR,Mesa,Active,33.393565,-111.752156
-111.7572233,33.39359292,EB SOUTHERN AV & MB VAL VISTA DR HELMS,Mesa,Active,33.393598,-111.757234
-111.7270112,33.39366282,EB SOUTHERN AV & FS ROANOKE,Mesa,Active,33.393668,-111.727022
-111.7664601,33.3935349,EB SOUTHERN AV & NS LOS ALAMOS,Mesa,Active,33.39354,-111.766471
-111.7448582,33.39361269,EB SOUTHERN AV & NS NASSAU,Mesa,Active,33.393618,-111.744869
-111.7231373,33.39367691,EB SOUTHERN AV & NS ST PAUL,Mesa,Active,33.393682,-111.723148
-111.7478603,33.42263387,EB UNIVERSITY DR & FS MAPLE,Mesa,Active,33.422639,-111.747871
-111.7442061,33.42265578,EB UNIVERSITY DR & FS NASSAU,Mesa,Active,33.422661,-111.744217
-111.7399093,33.42264973,EB UNIVERSITY DR & FS HEATHERWOOD,Mesa,Active,33.422655,-111.73992
-111.8178721,33.4222537,EB UNIVERSITY DR & FS OLIVE,Mesa,Active,33.422259,-111.817883
-111.7287894,33.42270183,EB UNIVERSITY DR & NS ROANOKE,Mesa,Active,33.422707,-111.7288
-111.7264373,33.42272572,EB UNIVERSITY DR & FS ROANOKE,Mesa,Active,33.422731,-111.726448
-111.7217062,33.42270766,EB UNIVERSITY DR & FS ST PAUL,Mesa,Active,33.422713,-111.721717
-111.7823522,33.42254189,EB UNIVERSITY DR & FS 22ND PL,Mesa,Active,33.422547,-111.782363
-111.7771393,33.42253971,EB UNIVERSITY DR & FS 25TH ST,Mesa,Active,33.422545,-111.77715
-111.8307212,33.42215388,EB UNIVERSITY DR & FS CENTER ST,Mesa,Active,33.422159,-111.830732
-111.7872864,33.42245479,EB UNIVERSITY DR & FS GILBERT RD,Mesa,Active,33.42246,-111.787297
-111.7358972,33.42264588,EB UNIVERSITY DR & FS GREENFIELD RD,Mesa,Active,33.422651,-111.735908
-111.7930191,33.42246888,EB UNIVERSITY DR & FS HALL ST,Mesa,Active,33.422474,-111.79303
-111.8258212,33.42218364,EB UNIVERSITY DR & FS HIBBERT,Mesa,Active,33.422189,-111.825832
-111.8136211,33.42226975,EB UNIVERSITY DR & FS HORNE,Mesa,Active,33.422275,-111.813632
-111.7968563,33.42240586,EB UNIVERSITY DR & FS HUNT DR,Mesa,Active,33.422411,-111.796867
-111.8005472,33.4223599,EB UNIVERSITY DR & FS LAZONA DR,Mesa,Active,33.422365,-111.800558
-111.7698041,33.42252575,EB UNIVERSITY DR & FS LINDSAY RD,Mesa,Active,33.422531,-111.769815
-111.7657271,33.4225739,EB UNIVERSITY DR & FS LOS ALAMOS,Mesa,Active,33.422579,-111.765738
-111.8222523,33.42222275,EB UNIVERSITY DR & FS MESA DR,Mesa,Active,33.422228,-111.822263
-111.8092901,33.42228779,EB UNIVERSITY DR & FS MILLER ST,Mesa,Active,33.422293,-111.809301
-111.8049552,33.42229991,EB UNIVERSITY DR & FS STAPLEY DR,Mesa,Active,33.422305,-111.804966
-111.7528354,33.42261773,EB UNIVERSITY DR & FS VAL VISTA DR,Mesa,Active,33.422623,-111.752846
-111.7732691,33.42255866,EB UNIVERSITY DR & FS YALE,Mesa,Active,33.422564,-111.77328
-111.7570002,33.42262481,EB UNIVERSITY DR & MB CRESTON VAL VISTA DR,Mesa,Active,33.42263,-111.757011
-111.8332862,33.42147568,EB 3RD PL & FS MACDONALD,Mesa,Active,33.421481,-111.833297
-111.8770571,33.37837676,EB BASELINE RD & FS DOBSON RD,Mesa,Active,33.378382,-111.877068
-111.8560963,33.40747069,EB BROADWAY RD & FS ALMA SCHOOL RD,Mesa,Active,33.407476,-111.856107
-111.8394683,33.40775087,EB BROADWAY RD & FS COUNTRY CLUB DR,Mesa,Active,33.407756,-111.839479
-111.8440493,33.40767365,EB BROADWAY RD & FS DATE,Mesa,Active,33.407679,-111.84406
-111.8736181,33.40739885,EB BROADWAY RD & FS DOBSON RD,Mesa,Active,33.407404,-111.873629
-111.8867622,33.40737386,EB BROADWAY RD & FS EL DORADO,Mesa,Active,33.407379,-111.886773
-111.8479922,33.40762066,EB BROADWAY RD & FS EXTENSION RD,Mesa,Active,33.407626,-111.848003
-111.8651752,33.40747781,EB BROADWAY RD & FS LONGMORE,Mesa,Active,33.407483,-111.865186
-111.8337391,33.40772986,EB BROADWAY RD & FS MACDONALD,Mesa,Active,33.407735,-111.83375
-111.8364364,33.40776379,EB BROADWAY RD & FS ROBSON,Mesa,Active,33.407769,-111.836447
-111.8828632,33.4073888,EB BROADWAY RD & FS ROOSEVELT RD,Mesa,Active,33.407394,-111.882874
-111.8676471,33.40748074,EB BROADWAY RD & FS SAGUARO,Mesa,Active,33.407486,-111.867658
-111.8607473,33.40750173,EB BROADWAY RD & FS STANDAGE,Mesa,Active,33.407507,-111.860758
-111.8783023,33.40742787,EB BROADWAY RD & MB VALENCIA,Mesa,Active,33.407433,-111.878313
-111.8528173,33.40756579,EB BROADWAY RD & NS WESTWOOD,Mesa,Active,33.407571,-111.852828
-111.8561041,33.41471989,EB MAIN ST FS & ALMA SCHOOL RD,Mesa,Active,33.414725,-111.856115
-111.8478832,33.4148948,EB MAIN ST & FS EXTENSION RD,Mesa,Active,33.4149,-111.847894
-111.8333583,33.41496477,EB MAIN ST & FS MACDONALD,Mesa,Active,33.41497,-111.833369
-111.8591952,33.41473372,EB MAIN ST & FS STEWART,Mesa,Active,33.414739,-111.859206
-111.8696504,33.41468371,EB MAIN ST & FS SYCAMORE,Mesa,Active,33.414689,-111.869661
-111.8524351,33.41482275,EB MAIN ST & MB BEVERLY,Mesa,Active,33.414828,-111.852446
-111.8436283,33.41495888,EB MAIN ST & NS EXTENSION RD,Mesa,Active,33.414964,-111.843639
-111.8392582,33.45129273,EB MCKELLIPS RD & FS COUNTRY CLUB DR,Mesa,Active,33.451298,-111.839269
-111.8347693,33.39321372,EB SOUTHERN AV & FS MACDONALD,Mesa,Active,33.393219,-111.83478
-111.8706463,33.39288371,EB SOUTHERN AV & NS SYCAMORE,Mesa,Active,33.392889,-111.870657
-111.8564822,33.3929318,EB SOUTHERN AV & FS ALMA SCHOOL RD,Mesa,Active,33.392937,-111.856493
-111.8309892,33.39321969,EB SOUTHERN AV & FS CENTER ST,Mesa,Active,33.393225,-111.831
-111.8390932,33.39315686,EB SOUTHERN AV & FS COUNTRY CLUB DR,Mesa,Active,33.393162,-111.839104
-111.8739831,33.39290772,EB SOUTHERN AV & FS DOBSON RD,Mesa,Active,33.392913,-111.873994
-111.8480852,33.39307476,EB SOUTHERN AV & FS EXTENSION RD,Mesa,Active,33.39308,-111.848096
-111.8632602,33.39293077,EB SOUTHERN AV & FS LONGMORE,Mesa,Active,33.392936,-111.863271
-111.8776442,33.39292679,EB SOUTHERN AV & FS SAN JOSE,Mesa,Active,33.392932,-111.877655
-111.8598714,33.39295483,EB SOUTHERN AV & FS STEWART,Mesa,Active,33.39296,-111.859882
-111.8420742,33.39314879,EB SOUTHERN AV & FS VINEYARD,Mesa,Active,33.393154,-111.842085
-111.8524541,33.39299492,EB SOUTHERN AV & FS WESTWOOD,Mesa,Active,33.393,-111.852465
-111.8558621,33.42195768,EB UNIVERSITY DR & FS ALMA SCHOOL RD,Mesa,Active,33.421963,-111.855873
-111.8394102,33.42222666,EB UNIVERSITY DR & FS COUNTRY CLUB DR,Mesa,Active,33.422232,-111.839421
-111.8739623,33.42199271,EB UNIVERSITY DR & FS DOBSON RD,Mesa,Active,33.421998,-111.873973
-111.8448671,33.42219669,EB UNIVERSITY DR & FS HOSICK,Mesa,Active,33.422202,-111.844878
-111.8647252,33.42202382,EB UNIVERSITY DR & FS LONGMORE,Mesa,Active,33.422029,-111.864736
-111.8336011,33.42223664,EB UNIVERSITY DR & FS MACDONALD,Mesa,Active,33.422242,-111.833612
-111.8361963,33.42221775,EB UNIVERSITY DR & FS ROBSON,Mesa,Active,33.422223,-111.836207
-111.8605411,33.42203189,EB UNIVERSITY DR & FS STANDAGE,Mesa,Active,33.422037,-111.860552
-111.8517683,33.4220988,EB UNIVERSITY DR & FS WESTWOOD,Mesa,Active,33.422104,-111.851779
-111.8485891,33.42213667,EB UNIVERSITY DR & NS EXTENSION RD,Mesa,Active,33.422142,-111.8486
-111.8567143,33.4032269,NB ALMA SCHOOL RD & NS 6TH AV,Mesa,Active,33.403232,-111.856725
-111.8563231,33.41881566,NB ALMA SCHOOL RD & FS 2ND ST,Mesa,Active,33.418821,-111.856334
-111.8561453,33.42709485,NB ALMA SCHOOL RD & FS 7TH ST,Mesa,Active,33.4271,-111.856156
-111.8567931,33.40066267,NB ALMA SCHOOL RD & FS 8TH AV,Mesa,Active,33.400668,-111.856804
-111.8564862,33.40804392,NB ALMA SCHOOL RD & FS BROADWAY RD,Mesa,Active,33.408049,-111.856497
-111.8569443,33.39703787,NB ALMA SCHOOL RD & FS EMERALD AV,Mesa,Active,33.397043,-111.856955
-111.8564002,33.41538074,NB ALMA SCHOOL RD & FS MAIN ST,Mesa,Active,33.415386,-111.856411
-111.8569873,33.39367466,NB ALMA SCHOOL RD & FS SOUTHERN AV,Mesa,Active,33.39368,-111.856998
-111.8562373,33.42252788,NB ALMA SCHOOL RD & FS UNIVERSITY DR,Mesa,Active,33.422533,-111.856248
-111.8312872,33.41786073,NB CENTER ST & FS 1ST ST,Mesa,Active,33.417866,-111.831298
-111.8313121,33.42595523,NB CENTER ST & FS 6TH ST,Mesa,Active,33.42596044,-111.8313228
-111.8311904,33.43002973,NB CENTER ST & FS 8TH ST,Mesa,Active,33.430035,-111.831201
-111.8312991,33.41542071,NB CENTER ST & FS MAIN ST,Mesa,Active,33.415426,-111.83131
-111.8313123,33.42269682,NB CENTER ST & FS UNIVERSITY DR,Mesa,Active,33.422702,-111.831323
-111.8396901,33.43966567,NB COUNTRY CLUB DR & FS 13TH PL,Mesa,Active,33.439671,-111.839701
-111.8398001,33.41793665,NB COUNTRY CLUB DR & FS 1ST ST,Mesa,Active,33.417942,-111.839811
-111.8397871,33.42635471,NB COUNTRY CLUB DR & FS 6TH ST,Mesa,Active,33.42636,-111.839798
-111.8397501,33.42999768,NB COUNTRY CLUB DR & FS 8TH ST,Mesa,Active,33.430003,-111.839761
-111.8397432,33.43268588,NB COUNTRY CLUB DR & FS 9TH PL,Mesa,Active,33.432691,-111.839754
-111.8397171,33.4354447,NB COUNTRY CLUB DR & FS BROWN RD,Mesa,Active,33.43545,-111.839728
-111.8396131,33.44853687,NB COUNTRY CLUB DR & FS JUNIPER ST,Mesa,Active,33.448542,-111.839624
-111.8397461,33.41562274,NB COUNTRY CLUB DR & FS MAIN ST,Mesa,Active,33.415628,-111.839757
-111.8396371,33.44439369,NB COUNTRY CLUB DR & FS MCLELLAN RD,Mesa,Active,33.444399,-111.839648
-111.8397581,33.42288787,NB COUNTRY CLUB DR & FS UNIVERSITY DR,Mesa,Active,33.422893,-111.839769
-111.8445982,33.42988681,NB DATE & FS 8TH ST,Mesa,Active,33.429892,-111.844609
-111.8741471,33.42603182,NB DOBSON RD & FS DECATUR ST,Mesa,Active,33.426037,-111.874158
-111.8742232,33.41582182,NB DOBSON RD & FS MAIN ST,Mesa,Active,33.415827,-111.874234
-111.8741741,33.42250481,NB DOBSON RD & FS UNIVERSITY DR,Mesa,Active,33.42251,-111.874185
-111.7878712,33.43040678,NB GILBERT RD & FS ADOBE ST,Mesa,Active,33.430412,-111.787882
-111.7879243,33.4272907,NB GILBERT RD & FS DECATUR ST,Mesa,Active,33.427296,-111.787935
-111.7878113,33.43362866,NB GILBERT RD & FS ENCANTO ST,Mesa,Active,33.433634,-111.787822
-111.7880434,33.41587591,NB GILBERT RD & FS MAIN ST,Mesa,Active,33.415881,-111.788054
-111.7878992,33.42339785,NB GILBERT RD & FS UNIVERSITY DR,Mesa,Active,33.423403,-111.78791
-111.7880051,33.41962386,NB GILBERT RD & MB MAIN ST,Mesa,Active,33.419629,-111.788016
-111.8225811,33.43218676,NB MESA DR & FS 10TH ST,Mesa,Active,33.432192,-111.822592
-111.8228093,33.41753167,NB MESA DR & FS 1ST ST,Mesa,Active,33.417537,-111.82282
-111.8226712,33.4261607,NB MESA DR & FS 6TH ST,Mesa,Active,33.426166,-111.822682
-111.8226211,33.43030689,NB MESA DR & FS 8TH ST,Mesa,Active,33.430312,-111.822632
-111.8227542,33.41567866,NB MESA DR & FS MAIN ST,Mesa,Active,33.415684,-111.822765
-111.8227092,33.4227857,NB MESA DR & FS UNIVERSITY DR,Mesa,Active,33.422791,-111.82272
-111.6841721,33.43272381,NB POWER RD & FS ENSENADA ST,Mesa,Active,33.432729,-111.684183
-111.6842761,33.41854067,NB POWER RD & NS ALBANY ST,Mesa,Active,33.418546,-111.684287
-111.6840952,33.43795384,NB POWER RD & FS BROWN RD,Mesa,Active,33.437959,-111.684106
-111.6842322,33.42716888,NB POWER RD & FS DECATUR ST,Mesa,Active,33.427174,-111.684243
-111.6838961,33.44940569,NB POWER RD & FS JENSEN ST,Mesa,Active,33.449411,-111.683907
-111.6843261,33.41649678,NB POWER RD & FS MAIN ST,Mesa,Active,33.416502,-111.684337
-111.6842304,33.42353688,NB POWER RD & FS UNIVERSITY DR,Mesa,Active,33.423542,-111.684241
-111.8051383,33.4339409,NB STAPLEY DR & NS FAIRFIELD ST,Mesa,Active,33.433946,-111.805149
-111.8051744,33.41906386,NB STAPLEY DR & FS 2ND ST,Mesa,Active,33.419069,-111.805185
-111.8051362,33.42997579,NB STAPLEY DR & FS 8TH ST,Mesa,Active,33.429981,-111.805147
-111.8051321,33.43728678,NB STAPLEY DR & FS BROWN RD,Mesa,Active,33.437292,-111.805143
-111.8050551,33.44003675,NB STAPLEY DR & FS GRANDVIEW ST,Mesa,Active,33.440042,-111.805066
-111.8056212,33.3826597,NB STAPLEY DR & FS INVERNESS AV,Mesa,Active,33.382665,-111.805632
-111.8048093,33.4484488,NB STAPLEY DR & FS JENSEN ST,Mesa,Active,33.448454,-111.80482
-111.8051573,33.41546674,NB STAPLEY DR & FS MAIN ST,Mesa,Active,33.415472,-111.805168
-111.8049261,33.44452283,NB STAPLEY DR & FS MCLELLAN RD,Mesa,Active,33.444528,-111.804937
-111.8050464,33.42281284,NB STAPLEY DR & FS UNIVERSITY DR,Mesa,Active,33.422818,-111.805057
-111.8051551,33.42619979,NB STAPLEY DR & NS 6TH ST,Mesa,Active,33.426205,-111.805166
-111.8595911,33.37910269,NB ALMA SCHOOL RD & FS BASELINE RD,Mesa,Active,33.379108,-111.859602
-111.8588762,33.36490566,NB ALMA SCHOOL RD & FS GUADALUPE RD,Mesa,Active,33.364911,-111.858887
-111.8570352,33.3887149,NB ALMA SCHOOL RD & FS HOLMES AV,Mesa,Active,33.38872,-111.857046
-111.8577681,33.38296776,NB ALMA SCHOOL RD & NS JAVELINA AV,Mesa,Active,33.382973,-111.857779
-111.8594461,33.37495773,NB ALMA SCHOOL RD & FS KILAREA AV,Mesa,Active,33.374963,-111.859457
-111.8592854,33.37177966,NB ALMA SCHOOL RD & FS MEDINA AV,Mesa,Active,33.371785,-111.859296
-111.8591293,33.36853892,NB ALMA SCHOOL RD & FS MESETO AV,Mesa,Active,33.368544,-111.85914
-111.8589301,33.3606099,NB ALMA SCHOOL RD & FS PECOS AV,Mesa,Active,33.360615,-111.858941
-111.8398973,33.39727888,NB COUNTRY CLUB DR & FS 10TH AV,Mesa,Active,33.397284,-111.839908
-111.8397333,33.41340093,NB COUNTRY CLUB DR & FS 1ST AV,Mesa,Active,33.413406,-111.839744
-111.8399081,33.40131767,NB COUNTRY CLUB DR & FS 8TH AV,Mesa,Active,33.401323,-111.839919
-111.8399061,33.39094489,NB Country Club Dr at 1331 South,Mesa,Active,33.39095,-111.839917
-111.8398192,33.3940357,NB COUNTRY CLUB DR & FS SOUTHERN AV,Mesa,Active,33.394041,-111.83983
-111.8398591,33.40529376,NB COUNTRY CLUB DR & MB 6TH DR BROADWAY FRONTAGE,Mesa,Active,33.405299,-111.83987
-111.8774191,33.37893673,NB DOBSON RD & FS BASELINE RD,Mesa,Active,33.378942,-111.87743
-111.8742853,33.40811889,NB DOBSON RD & FS BROADWAY RD,Mesa,Active,33.408124,-111.874296
-111.8763801,33.36461493,NB DOBSON RD & FS GUADALUPE RD,Mesa,Active,33.36462,-111.876391
-111.8749022,33.38311378,NB DOBSON RD & FS ISABELLA AV,Mesa,Active,33.383119,-111.874913
-111.8781071,33.37663982,NB DOBSON RD & FS LINDNER AV,Mesa,Active,33.376645,-111.878118
-111.8743943,33.39357792,NB DOBSON RD & FS SOUTHERN AV,Mesa,Active,33.393583,-111.874405
-111.8744331,33.3897799,NB DOBSON RD & MB US-60 RAMP,Mesa,Active,33.389785,-111.874444
-111.6612553,33.3760898,NB FARNSWORTH DR & FS KIOWA ST,Mesa,Active,33.376095,-111.661266
-111.7881283,33.37958768,NB GILBERT RD & FS BASELINE RD,Mesa,Active,33.379593,-111.788139
-111.7880963,33.41134165,NB GILBERT RD & FS BAYBERRY AV,Mesa,Active,33.411347,-111.788107
-111.7881003,33.40840169,NB GILBERT RD & FS BROADWAY RD,Mesa,Active,33.408407,-111.788111
-111.7881432,33.40531666,NB GILBERT RD & FS CLOVIS AV,Mesa,Active,33.405322,-111.788154
-111.7881484,33.39019768,NB GILBERT RD & FS HAMPTON AV,Mesa,Active,33.390203,-111.788159
-111.7881351,33.40118278,NB GILBERT RD & FS PUEBLO AV,Mesa,Active,33.401188,-111.788146
-111.7880792,33.39424189,NB GILBERT RD & FS SOUTHERN AV,Mesa,Active,33.394247,-111.78809
-111.7881613,33.38405389,NB GILBERT RD & NS INVERNESS AV,Mesa,Active,33.384059,-111.788172
-111.8229271,33.38259867,NB MESA DR & NS AUTO CENTER DR,Mesa,Active,33.382604,-111.822938
-111.8228252,33.41157177,NB MESA DR & FS 2ND AV,Mesa,Active,33.411577,-111.822836
-111.8228693,33.40799668,NB MESA DR & FS BROADWAY RD,Mesa,Active,33.408002,-111.82288
-111.8227771,33.38985382,NB MESA DR & FS HAMPTON AV,Mesa,Active,33.389859,-111.822788
-111.8228224,33.39986274,NB MESA DR & FS MILLETT AV,Mesa,Active,33.399868,-111.822833
-111.8227611,33.39403991,NB MESA DR & FS SOUTHERN AV,Mesa,Active,33.394045,-111.822772
-111.6844912,33.39939986,NB POWER RD & MB FLOSSMOOR AV PUEBLO AV,Mesa,Active,33.399405,-111.684502
-111.6876834,33.38004383,NB POWER RD & FS BASELINE RD,Mesa,Active,33.380049,-111.687694
-111.6843581,33.41062874,NB POWER RD & FS BAYWOOD AV,Mesa,Active,33.410634,-111.684369
-111.6874313,33.36572387,NB POWER RD & FS GUADALUPE RD,Mesa,Active,33.365729,-111.687442
-111.6844893,33.39111782,NB POWER RD & FS HAMPTON AV,Mesa,Active,33.391123,-111.6845
-111.6845352,33.39434069,NB POWER RD & FS SOUTHERN AV,Mesa,Active,33.394346,-111.684546
-111.8923203,33.37898782,NB PRICE RD & FS BASELINE RD,Mesa,Active,33.378993,-111.892331
-111.7018604,33.41068666,NB RECKER RD & MB BROADWAY RD ARBOR AV,Mesa,Active,33.410692,-111.701871
-111.8052334,33.40444682,NB STAPLEY DR & FS 6TH AV,Mesa,Active,33.404452,-111.805244
-111.8052491,33.40083791,NB STAPLEY DR & FS 8TH AV,Mesa,Active,33.400843,-111.80526
-111.8051853,33.40824288,NB STAPLEY DR & FS BROADWAY RD,Mesa,Active,33.408248,-111.805196
-111.8052881,33.39648776,NB STAPLEY DR & FS EMERALD AV,Mesa,Active,33.396493,-111.805299
-111.8053323,33.3895258,NB STAPLEY DR & FS HILTON AV,Mesa,Active,33.389531,-111.805343
-111.8051814,33.41052185,NB STAPLEY DR & FS JARVIS AV,Mesa,Active,33.410527,-111.805192
-111.8052883,33.39376271,NB STAPLEY DR & FS SOUTHERN AV,Mesa,Active,33.393768,-111.805299
-111.8564721,33.42663575,SB ALMA SCHOOL RD & FS 7TH ST,Mesa,Active,33.426641,-111.856483
-111.8564583,33.42902767,SB ALMA SCHOOL RD & FS 8TH ST,Mesa,Active,33.429033,-111.856469
-111.8566113,33.42160075,SB ALMA SCHOOL RD & FS UNIVERSITY DR,Mesa,Active,33.421606,-111.856622
-111.8566443,33.41876689,SB ALMA SCHOOL RD & NS 2ND ST,Mesa,Active,33.418772,-111.856655
-111.8315664,33.42327278,SB CENTER ST & FS 5TH ST,Mesa,Active,33.423278,-111.831577
-111.8315081,33.4265678,SB CENTER ST & FS 6TH PL,Mesa,Active,33.426573,-111.831519
-111.8314311,33.43085387,SB CENTER ST & FS 8TH PL,Mesa,Active,33.430859,-111.831442
-111.8313974,33.43455071,SB CENTER ST & FS BROWN RD,Mesa,Active,33.434556,-111.831408
-111.8312682,33.44695575,SB CENTER ST & FS INGLEWOOD ST,Mesa,Active,33.446961,-111.831279
-111.8312722,33.45091371,SB CENTER ST & FS MCKELLIPS RD,Mesa,Active,33.450919,-111.831283
-111.8401473,33.41702083,SB COUNTRY CLUB DR & FS 1ST ST,Mesa,Active,33.417026,-111.840158
-111.8400882,33.43473365,SB COUNTRY CLUB DR & FS BROWN RD,Mesa,Active,33.434739,-111.840099
-111.8400183,33.43971589,SB COUNTRY CLUB DR & FS FAIRWAY DR,Mesa,Active,33.439721,-111.840029
-111.8399753,33.44385686,SB COUNTRY CLUB DR & FS MCLELLAN RD,Mesa,Active,33.443862,-111.839986
-111.8401661,33.42181982,SB COUNTRY CLUB DR & FS UNIVERSITY DR,Mesa,Active,33.421825,-111.840177
-111.8400852,33.43221969,SB Country Club Dr FS 9th Pl,Mesa,Active,33.432225,-111.840096
-111.8448211,33.43067381,SB DATE & NS 8TH PL,Mesa,Active,33.430679,-111.844832
-111.8745491,33.4182779,SB DOBSON RD & FS 2ND ST,Mesa,Active,33.418283,-111.87456
-111.8745511,33.42157268,SB DOBSON RD & FS UNIVERSITY DR,Mesa,Active,33.421578,-111.874562
-111.7881373,33.42976668,SB GILBERT RD & FS 8TH ST,Mesa,Active,33.429772,-111.788148
-111.7880633,33.43681073,SB GILBERT RD & FS BROWN RD,Mesa,Active,33.436816,-111.788074
-111.7882412,33.42643271,SB GILBERT RD & FS DECATUR ST,Mesa,Active,33.426438,-111.788252
-111.7880694,33.43359869,SB GILBERT RD & FS FAIRFIELD ST,Mesa,Active,33.433604,-111.78808
-111.7879181,33.43988685,SB GILBERT RD & FS GRANDVIEW ST,Mesa,Active,33.439892,-111.787929
-111.7894091,33.45895888,SB GILBERT RD & FS HERMOSA VISTA DR,Mesa,Active,33.458964,-111.78942
-111.7877721,33.45570668,SB GILBERT RD & FS LOCKWOOD ST,Mesa,Active,33.455712,-111.787783
-111.7878423,33.45107271,SB GILBERT RD & FS MCKELLIPS RD,Mesa,Active,33.451078,-111.787853
-111.7878742,33.44408772,SB GILBERT RD & FS MCLELLAN RD,Mesa,Active,33.444093,-111.787885
-111.7883743,33.42214068,SB GILBERT RD & FS UNIVERSITY DR,Mesa,Active,33.422146,-111.788385
-111.7883691,33.41901877,SB GILBERT RD & MB UNIVERSITY DR,Mesa,Active,33.419024,-111.78838
-111.8227633,33.41974492,NB MESA DR & FS 2ND ST,Mesa,Active,33.41975,-111.822774
-111.8230584,33.41687773,SB MESA DR & FS 1ST ST,Mesa,Active,33.416883,-111.823069
-111.8229234,33.42572884,SB MESA DR & FS 6TH ST,Mesa,Active,33.425734,-111.822934
-111.8230361,33.42204278,SB MESA DR & FS UNIVERSITY DR,Mesa,Active,33.422048,-111.823047
-111.8229022,33.4289417,SB MESA DR & FS 8TH ST,Mesa,Active,33.428947,-111.822913
-111.6878562,33.36745972,SB POWER RD & FS MONTEREY AV,Mesa,Active,33.367465,-111.687867
-111.6846542,33.4185848,SB POWER RD & FS ALBANY ST,Mesa,Active,33.41859,-111.684665
-111.6844784,33.4367439,SB POWER RD & FS BROWN RD,Mesa,Active,33.436749,-111.684489
-111.6843074,33.44777887,SB POWER RD & FS INGLEWOOD ST,Mesa,Active,33.447784,-111.684318
-111.6843602,33.45108279,SB POWER RD & FS MCKELLIPS RD,Mesa,Active,33.451088,-111.684371
-111.8052092,33.44412265,SB STAPLEY DR & FS MCLELLAN RD,Mesa,Active,33.444128,-111.80522
-111.8054103,33.41862873,SB STAPLEY DR & FS 2ND ST,Mesa,Active,33.418634,-111.805421
-111.8054061,33.42544887,SB STAPLEY DR & FS 6TH ST,Mesa,Active,33.425454,-111.805417
-111.8054063,33.43662577,SB STAPLEY DR & FS BROWN RD,Mesa,Active,33.436631,-111.805417
-111.8054014,33.43380371,SB STAPLEY DR & FS FAIRFIELD ST,Mesa,Active,33.433809,-111.805412
-111.8052803,33.44108382,SB STAPLEY DR & FS HALIFAX ST,Mesa,Active,33.441089,-111.805291
-111.8051073,33.4477037,SB STAPLEY DR & FS JENSEN ST,Mesa,Active,33.447709,-111.805118
-111.8054032,33.42213073,SB STAPLEY DR & FS UNIVERSITY DR,Mesa,Active,33.422136,-111.805414
-111.8570341,33.40335073,SB ALMA SCHOOL RD & FS 6TH AV,Mesa,Active,33.403356,-111.857045
-111.8571711,33.39992573,SB ALMA SCHOOL RD & FS 8TH AV,Mesa,Active,33.399931,-111.857182
-111.8599551,33.37809089,SB ALMA SCHOOL RD & FS BASELINE RD,Mesa,Active,33.378096,-111.859966
-111.8569052,33.40690271,SB ALMA SCHOOL RD & FS BROADWAY RD,Mesa,Active,33.406908,-111.856916
-111.8573101,33.39649166,SB ALMA SCHOOL RD & FS EMERALD AV,Mesa,Active,33.396497,-111.857321
-111.8592594,33.36299679,SB ALMA SCHOOL RD & FS GUADALUPE RD,Mesa,Active,33.363002,-111.85927
-111.8581432,33.3829968,SB ALMA SCHOOL RD & FS ISABELLA AV,Mesa,Active,33.383002,-111.858154
-111.8596931,33.37435182,SB ALMA SCHOOL RD & FS KILAREA AV,Mesa,Active,33.374357,-111.859704
-111.8568083,33.41427279,SB ALMA SCHOOL RD & FS MAIN ST,Mesa,Active,33.414278,-111.856819
-111.8595282,33.37104567,SB ALMA SCHOOL RD & FS MEDINA AV,Mesa,Active,33.371051,-111.859539
-111.8593754,33.3678698,SB ALMA SCHOOL RD & FS MESETO AV,Mesa,Active,33.367875,-111.859386
-111.8592201,33.35999385,SB ALMA SCHOOL RD & FS PECOS AV,Mesa,Active,33.359999,-111.859231
-111.8573833,33.39333267,SB ALMA SCHOOL RD & NS SOUTHERN AV,Mesa,Active,33.393338,-111.857394
-111.8574992,33.39146985,SB ALMA SCHOOL RD & NS GROVE AV,Mesa,Active,33.391475,-111.85751
-111.8402541,33.3886598,SB COUNTRY CLUB DR & FS HAMPTON AV,Mesa,Active,33.388665,-111.840265
-111.8402264,33.40013385,SB COUNTRY CLUB DR & FS 8TH AV,Mesa,Active,33.400139,-111.840237
-111.8402153,33.40602286,SB COUNTRY CLUB DR & FS BROADWAY FRONTAGE RD,Mesa,Active,33.406028,-111.840226
-111.8402301,33.39659583,SB COUNTRY CLUB DR & FS EMERALD AV,Mesa,Active,33.396601,-111.840241
-111.8400961,33.41451178,SB COUNTRY CLUB DR & FS MAIN ST,Mesa,Active,33.414517,-111.840107
-111.8402801,33.39262578,SB COUNTRY CLUB DR & FS SOUTHERN AV,Mesa,Active,33.392631,-111.840291
-111.8400841,33.41254969,SB COUNTRY CLUB DR & NS DANA AV,Mesa,Active,33.412555,-111.840095
-111.8746511,33.41266378,SB DOBSON RD & FS 1ST AV,Mesa,Active,33.412669,-111.874662
-111.8747451,33.3999637,SB DOBSON RD & FS 8TH AV,Mesa,Active,33.399969,-111.874756
-111.8747414,33.40695482,SB DOBSON RD & FS BROADWAY RD,Mesa,Active,33.40696,-111.874752
-111.8747582,33.39649191,SB DOBSON RD & FS EMERALD AV,Mesa,Active,33.396497,-111.874769
-111.8756481,33.38256077,SB DOBSON RD & FS ISABELLA AV,Mesa,Active,33.382566,-111.875659
-111.8776642,33.36777684,NB DOBSON RD & FS KEATING AV,Mesa,Active,33.367782,-111.877675
-111.8748122,33.39255868,SB DOBSON RD & FS SOUTHERN AV,Mesa,Active,33.392564,-111.874823
-111.8747321,33.40315487,SB DOBSON RD & MB BROADWAY RD 8TH AV,Mesa,Active,33.40316,-111.874743
-111.8748442,33.38870788,SB DOBSON RD & MB SOUTHERN AV US-60 RAMP,Mesa,Active,33.388713,-111.874855
-111.6609023,33.37883473,SB FARNSWORTH DR & FS BASELINE RD,Mesa,Active,33.37884,-111.660913
-111.7884523,33.41144289,SB GILBERT RD & FS 2ND AV,Mesa,Active,33.411448,-111.788463
-111.7884882,33.40419869,SB GILBERT RD & FS 6TH AV,Mesa,Active,33.404204,-111.788499
-111.7884871,33.40047872,SB GILBERT RD & FS 8TH AV,Mesa,Active,33.400484,-111.788498
-111.7885283,33.40744378,SB GILBERT RD & FS BROADWAY RD,Mesa,Active,33.407449,-111.788539
-111.7884664,33.39697971,SB GILBERT RD & FS EMERALD AV,Mesa,Active,33.396985,-111.788477
-111.7884982,33.38958981,SB GILBERT RD & FS HAMPTON AV,Mesa,Active,33.389595,-111.788509
-111.7884913,33.4148339,SB GILBERT RD & FS MAIN ST,Mesa,Active,33.414839,-111.788502
-111.7885222,33.3928577,SB GILBERT RD & FS SOUTHERN AV,Mesa,Active,33.392863,-111.788533
-111.7885043,33.38361092,SB GILBERT RD & NS INTREPID AV,Mesa,Active,33.383616,-111.788515
-111.8284532,33.38221986,SB LEWIS & FS COURY AV,Mesa,Active,33.382225,-111.828464
-111.8230863,33.41041572,SB MESA DR & FS 2ND AV,Mesa,Active,33.410421,-111.823097
-111.8230784,33.40742187,SB MESA DR & FS BROADWAY RD,Mesa,Active,33.407427,-111.823089
-111.8230653,33.41471393,SB MESA DR & FS MAIN ST,Mesa,Active,33.414719,-111.823076
-111.8230652,33.3992558,SB MESA DR & FS MILLETT AV,Mesa,Active,33.399261,-111.823076
-111.8230822,33.39254392,SB MESA DR & FS SOUTHERN AV,Mesa,Active,33.392549,-111.823093
-111.6847712,33.40985364,SB POWER RD & FS BAYWOOD AV,Mesa,Active,33.409859,-111.684782
-111.6847502,33.40811085,SB POWER RD & FS BROADWAY RD,Mesa,Active,33.408116,-111.684761
-111.6846963,33.41519089,SB POWER RD & FS MAIN ST,Mesa,Active,33.415196,-111.684707
-111.6848233,33.39862186,SB POWER RD & MB FLOSSMOOR AV PUEBLO AV,Mesa,Active,33.398627,-111.684834
-111.6849334,33.39354577,SB POWER RD & FS SOUTHERN AV,Mesa,Active,33.393551,-111.684944
-111.6855491,33.3834817,SB POWER RD & FS SUPERSTITION SPRINGS BLVD,Mesa,Active,33.383487,-111.68556
-111.6849972,33.39084778,SB POWER RD & NS HAMPTON AV,Mesa,Active,33.390853,-111.685008
-111.7020294,33.41018867,SB RECKER RD & MB ARBOR AV BROADWAY RD,Mesa,Active,33.410194,-111.70204
-111.8054012,33.41085983,SB STAPLEY DR & NS JARVIS AV,Mesa,Active,33.410865,-111.805412
-111.8054743,33.40388472,SB STAPLEY DR & FS 6TH AV,Mesa,Active,33.40389,-111.805485
-111.8054874,33.40029971,SB STAPLEY DR & FS 8TH AV,Mesa,Active,33.400305,-111.805498
-111.8054513,33.40751287,SB STAPLEY DR & FS BROADWAY RD,Mesa,Active,33.407518,-111.805462
-111.8055721,33.39603893,SB STAPLEY DR & FS EMERALD AV,Mesa,Active,33.396044,-111.805583
-111.8056963,33.38877279,SB STAPLEY DR & FS HARMONY AV,Mesa,Active,33.388778,-111.805707
-111.8054254,33.41475186,SB STAPLEY DR & FS MAIN ST,Mesa,Active,33.414757,-111.805436
-111.8055831,33.39300881,SB STAPLEY DR & FS SOUTHERN AV,Mesa,Active,33.393014,-111.805594
-111.6970642,33.41283576,WB ARBOR AV & MB PINNULE CIR RECKER RD,Mesa,Active,33.412841,-111.697075
-111.7012212,33.41380773,WB ARBOR AV & NS RECKER RD,Mesa,Active,33.413813,-111.701232
-111.6630803,33.37935178,WB BASELINE RD & FS 78TH ST,Mesa,Active,33.379357,-111.663091
-111.6676804,33.37935669,WB BASELINE RD & FS SOSSAMAN RD,Mesa,Active,33.379362,-111.667691
-111.7583322,33.4083288,WB BROADWAY RD & FS 34TH ST,Mesa,Active,33.408334,-111.758343
-111.7801164,33.4082409,WB BROADWAY RD & FS 24TH ST,Mesa,Active,33.408246,-111.780127
-111.7649263,33.40830186,WB BROADWAY RD & FS 31ST ST,Mesa,Active,33.408307,-111.764937
-111.7279592,33.40844573,WB BROADWAY RD & FS 48TH ST,Mesa,Active,33.408451,-111.72797
-111.7107273,33.40859587,WB BROADWAY RD & FS 56TH ST,Mesa,Active,33.408601,-111.710738
-111.8000651,33.40807877,WB BROADWAY RD & FS BARKLEY,Mesa,Active,33.408084,-111.800076
-111.7843732,33.40822682,WB BROADWAY RD & FS CHESTNUT,Mesa,Active,33.408232,-111.784384
-111.7889092,33.40828874,WB BROADWAY RD & FS GILBERT RD,Mesa,Active,33.408294,-111.78892
-111.7374343,33.40847077,WB BROADWAY RD & FS GREENFIELD RD,Mesa,Active,33.408476,-111.737445
-111.7195922,33.40849869,WB BROADWAY RD & FS HIGLEY RD,Mesa,Active,33.408504,-111.719603
-111.8190072,33.40788981,WB BROADWAY RD & FS HOBSON,Mesa,Active,33.407895,-111.819018
-111.8144563,33.4079249,WB BROADWAY RD & FS HORNE,Mesa,Active,33.40793,-111.814467
-111.8209042,33.4078759,WB BROADWAY RD & FS LESUEUR,Mesa,Active,33.407881,-111.820915
-111.7713601,33.40826174,WB BROADWAY RD & FS LINDSAY RD,Mesa,Active,33.408267,-111.771371
-111.7485453,33.40836375,WB BROADWAY RD & FS MAPLE,Mesa,Active,33.408369,-111.748556
-111.8344893,33.40796177,WB BROADWAY RD & FS MACDONALD,Mesa,Active,33.407967,-111.8345
-111.7431772,33.4083767,WB BROADWAY RD & FS NORWALK,Mesa,Active,33.408382,-111.743188
-111.8240832,33.40790387,WB BROADWAY RD & FS POMEROY,Mesa,Active,33.407909,-111.824094
-111.7321994,33.40841885,WB BROADWAY RD & FS QUINN,Mesa,Active,33.408424,-111.73221
-111.7249053,33.40845974,WB BROADWAY RD & FS RACINE,Mesa,Active,33.408465,-111.724916
-111.8292743,33.40794886,WB BROADWAY RD & FS SIRRINE,Mesa,Active,33.407954,-111.829285
-111.8104003,33.40796492,WB BROADWAY RD & FS SOLOMON,Mesa,Active,33.40797,-111.810411
-111.8056804,33.40800778,WB BROADWAY RD & FS STAPLEY DR,Mesa,Active,33.408013,-111.805691
-111.7151563,33.40851767,WB BROADWAY RD & FS SUNNYVALE,Mesa,Active,33.408523,-111.715167
-111.7543722,33.40834787,WB BROADWAY RD & FS VAL VISTA DR,Mesa,Active,33.408353,-111.754383
-111.7953072,33.40813192,WB BROADWAY RD & FS WILLIAMS,Mesa,Active,33.408137,-111.795318
-111.7744871,33.40825079,WB BROADWAY RD & FS WINDSOR,Mesa,Active,33.408256,-111.774498
-111.7413112,33.4084098,WB BROADWAY RD & MB OAKLAND,Mesa,Active,33.408415,-111.741322
-111.8230323,33.43568471,WB BROWN RD & FS MESA DR,Mesa,Active,33.43569,-111.823043
-111.8286053,33.43504787,WB BROWN RD & MB PASADENA,Mesa,Active,33.435053,-111.828616
-111.8027914,33.44916484,WB JUNE ST & MB LAZONA DR,Mesa,Active,33.44917,-111.802802
-111.8268333,33.41522077,WB MAIN ST & FS HIBBERT CENTENNIAL WY,Mesa,Active,33.415226,-111.826844
-111.8085542,33.41524192,WB MAIN ST & FS MATLOCK ST,Mesa,Active,33.415247,-111.808565
-111.8232673,33.41520879,WB MAIN ST & FS MESA DR,Mesa,Active,33.415214,-111.823278
-111.7094353,33.39404176,WB SOUTHERN AV & FS SLATER,Mesa,Active,33.394047,-111.709446
-111.7804894,33.39369373,WB SOUTHERN AV & FS 24TH ST,Mesa,Active,33.393699,-111.7805
-111.7617354,33.39375584,WB SOUTHERN AV & FS 32ND ST,Mesa,Active,33.393761,-111.761746
-111.7483463,33.39380684,WB SOUTHERN AV & FS 39TH ST,Mesa,Active,33.393812,-111.748357
-111.7430924,33.39383368,WB SOUTHERN AV & FS 41ST ST,Mesa,Active,33.393839,-111.743103
-111.7153871,33.3939779,WB SOUTHERN AV & FS 54TH ST,Mesa,Active,33.393983,-111.715398
-111.7892201,33.39377969,WB SOUTHERN AV & FS GILBERT RD,Mesa,Active,33.393785,-111.789231
-111.7934254,33.39360666,WB SOUTHERN AV & FS HALL,Mesa,Active,33.393612,-111.793436
-111.7972982,33.39356784,WB SOUTHERN AV & FS HARRIS DR,Mesa,Active,33.393573,-111.797309
-111.8190633,33.39343873,WB SOUTHERN AV & FS HOBSON,Mesa,Active,33.393444,-111.819074
-111.8146502,33.39346266,WB SOUTHERN AV & FS HORNE,Mesa,Active,33.393468,-111.814661
-111.8234364,33.39344869,WB SOUTHERN AV & FS MESA DR,Mesa,Active,33.393454,-111.823447
-111.7279103,33.3939088,WB SOUTHERN AV & FS ROANOKE,Mesa,Active,33.393914,-111.727921
-111.7706703,33.39375568,WB SOUTHERN AV & FS ROBIN LN,Mesa,Active,33.393761,-111.770681
-111.7843714,33.39368474,WB SOUTHERN AV & FS ROSE,Mesa,Active,33.39369,-111.784382
-111.8281571,33.39342878,WB SOUTHERN AV & FS SIRRINE,Mesa,Active,33.393434,-111.828168
-111.8101752,33.39345176,WB SOUTHERN AV & FS SOLOMON,Mesa,Active,33.393457,-111.810186
-111.8010312,33.39351284,WB SOUTHERN AV & FS SPUR,Mesa,Active,33.393518,-111.801042
-111.7228953,33.39391784,WB SOUTHERN AV & FS ST PAUL,Mesa,Active,33.393923,-111.722906
-111.8065323,33.39353268,WB SOUTHERN AV & FS STAPLEY DR,Mesa,Active,33.393538,-111.806543
-111.7543632,33.39379589,WB SOUTHERN AV & FS VAL VISTA DR,Mesa,Active,33.393801,-111.754374
-111.7334581,33.39389376,WB SOUTHERN AV & FS PARKCREST,Mesa,Active,33.393899,-111.733469
-111.7571823,33.39378085,WB SOUTHERN AV & MB VAL VISTA DR,Mesa,Active,33.393786,-111.757193
-111.8237181,33.42243686,WB UNIVERSITY DR & NS POMEROY,Mesa,Active,33.422442,-111.823729
-111.7817793,33.42275977,WB UNIVERSITY DR & FS 23RD ST,Mesa,Active,33.422765,-111.78179
-111.7779963,33.42277291,WB UNIVERSITY DR & FS 25TH ST,Mesa,Active,33.422778,-111.778007
-111.7893691,33.42281671,WB UNIVERSITY DR & FS GILBERT RD,Mesa,Active,33.422822,-111.78938
-111.7371791,33.42294869,WB UNIVERSITY DR & FS GREENFIELD RD,Mesa,Active,33.422954,-111.73719
-111.7938671,33.42265166,WB UNIVERSITY DR & FS HALL ST,Mesa,Active,33.422657,-111.793878
-111.8268311,33.42241085,WB UNIVERSITY DR & FS HIBBERT,Mesa,Active,33.422416,-111.826842
-111.7198492,33.42297077,WB UNIVERSITY DR & FS HIGLEY RD,Mesa,Active,33.422976,-111.71986
-111.8182773,33.42244586,WB UNIVERSITY DR & FS HOBSON,Mesa,Active,33.422451,-111.818288
-111.8143321,33.42246878,WB UNIVERSITY DR & FS HORNE RD,Mesa,Active,33.422474,-111.814343
-111.7989343,33.42258484,WB UNIVERSITY DR & FS HUNT DR,Mesa,Active,33.42259,-111.798945
-111.7716931,33.4228138,WB UNIVERSITY DR & FS LINDSAY RD,Mesa,Active,33.422819,-111.771704
-111.7665202,33.4228038,WB UNIVERSITY DR & FS LOS ALAMOS,Mesa,Active,33.422809,-111.766531
-111.7485701,33.4228679,WB UNIVERSITY DR & FS MAPLE,Mesa,Active,33.422873,-111.748581
-111.8093633,33.42247667,WB UNIVERSITY DR & FS MILLER ST,Mesa,Active,33.422482,-111.809374
-111.7448802,33.42286367,WB UNIVERSITY DR & FS NASSAU,Mesa,Active,33.422869,-111.744891
-111.7421703,33.42287775,WB UNIVERSITY DR & FS NORFOLK,Mesa,Active,33.422883,-111.742181
-111.7344883,33.42293075,WB UNIVERSITY DR & FS QUINN,Mesa,Active,33.422936,-111.734499
-111.7278443,33.42293483,WB UNIVERSITY DR & FS ROANOKE,Mesa,Active,33.42294,-111.727855
-111.7223124,33.4229458,WB UNIVERSITY DR & FS ST PAUL,Mesa,Active,33.422951,-111.722323
-111.8061074,33.42248865,WB UNIVERSITY DR & FS STAPLEY DR,Mesa,Active,33.422494,-111.806118
-111.7543573,33.42285884,WB UNIVERSITY DR & FS VAL VISTA DR,Mesa,Active,33.422864,-111.754368
-111.7600843,33.42283377,WB UNIVERSITY DR & FS LA VALENCIA,Mesa,Active,33.422839,-111.760095
-111.8520883,33.42956168,WB RIO SALADO PKWY & NS WESTWOOD,Mesa,Active,33.429567,-111.852099
-111.8782913,33.37870476,WB BASELINE RD & FS DOBSON RD,Mesa,Active,33.37871,-111.878302
-111.8911454,33.3786028,WB BASELINE RD & FS DON CARLOS S,Mesa,Active,33.378608,-111.891156
-111.8863131,33.3786237,WB BASELINE RD & FS EL DORADO,Mesa,Active,33.378629,-111.886324
-111.8573043,33.40778267,WB BROADWAY RD & FS ALMA SCHOOL RD,Mesa,Active,33.407788,-111.857315
-111.8414651,33.40793184,WB BROADWAY RD & FS COUNTRY CLUB DR,Mesa,Active,33.407937,-111.841476
-111.8446701,33.40787575,WB BROADWAY RD & FS DATE,Mesa,Active,33.407881,-111.844681
-111.8873532,33.40765076,WB BROADWAY RD & FS EL DORADO,Mesa,Active,33.407656,-111.887364
-111.8487031,33.40784587,WB BROADWAY RD & FS EXTENSION RD,Mesa,Active,33.407851,-111.848714
-111.8659711,33.40772083,WB BROADWAY RD & FS LONGMORE,Mesa,Active,33.407726,-111.865982
-111.8836781,33.40767073,WB BROADWAY RD & FS ROOSEVELT RD,Mesa,Active,33.407676,-111.883689
-111.8813973,33.40771188,WB BROADWAY RD & FS VALENCIA,Mesa,Active,33.407717,-111.881408
-111.8528824,33.4077769,WB BROADWAY RD & FS WESTWOOD,Mesa,Active,33.407782,-111.852893
-111.8752692,33.40776688,WB BROADWAY RD & FS DOBSON RD,Mesa,Active,33.407772,-111.87528
-111.8365712,33.40798787,WB BROADWAY RD & NS ROBSON,Mesa,Active,33.407993,-111.836582
-111.8316372,33.43505465,WB BROWN RD & FS CENTER ST,Mesa,Active,33.43506,-111.831648
-111.8404863,33.4352778,WB BROWN RD & MB COUNTRY CLUB DR,Mesa,Active,33.435283,-111.840497
-111.8431082,33.43520573,WB BROWN RD & 560 WEST,Mesa,Active,33.435211,-111.843119
-111.8352002,33.43520766,WB BROWN RD & NS GRAND,Mesa,Active,33.435213,-111.835211
-111.8575442,33.41509271,WB MAIN ST & FS ALMA SCHOOL RD,Mesa,Active,33.415098,-111.857555
-111.8406483,33.41530283,WB MAIN ST & FS COUNTRY CLUB DR,Mesa,Active,33.415308,-111.840659
-111.8447611,33.41519672,WB MAIN ST & FS DATE,Mesa,Active,33.415202,-111.844772
-111.8489291,33.41517983,WB MAIN ST & FS EXTENSION RD,Mesa,Active,33.415185,-111.84894
-111.8658823,33.41497685,WB MAIN ST & FS LONGMORE,Mesa,Active,33.414982,-111.865893
-111.8346264,33.41523166,WB MAIN ST & FS MACDONALD,Mesa,Active,33.415237,-111.834637
-111.8614013,33.41500572,WB MAIN ST & FS STANDAGE,Mesa,Active,33.415011,-111.861412
-111.8530841,33.41507484,WB MAIN ST & MB EXTENSION RD BEVERLY,Mesa,Active,33.41508,-111.853095
-111.8351452,33.4442479,WB MCLELLAN RD & FS DREW ST,Mesa,Active,33.444253,-111.835156
-111.8579692,33.3932538,WB SOUTHERN AV & FS ALMA SCHOOL RD,Mesa,Active,33.393259,-111.85798
-111.8309841,33.39343984,WB SOUTHERN AV & FS CENTER ST,Mesa,Active,33.393445,-111.830995
-111.8405143,33.39345072,WB SOUTHERN AV & FS COUNTRY CLUB DR,Mesa,Active,33.393456,-111.840525
-111.8752902,33.39323192,WB SOUTHERN AV & FS DOBSON RD,Mesa,Active,33.393237,-111.875301
-111.8496712,33.39333892,WB SOUTHERN AV & FS EXTENSION RD,Mesa,Active,33.393344,-111.849682
-111.8642603,33.39322583,WB SOUTHERN AV & FS LONGMORE,Mesa,Active,33.393231,-111.864271
-111.8351691,33.39341984,WB SOUTHERN AV & FS MACDONALD,Mesa,Active,33.393425,-111.83518
-111.8784841,33.39315984,WB SOUTHERN AV & FS SAN JOSE,Mesa,Active,33.393165,-111.878495
-111.8534712,33.39328292,WB SOUTHERN AV & FS WESTWOOD,Mesa,Active,33.393288,-111.853482
-111.8722631,33.39322373,WB SOUTHERN AV & MB SYCAMORE,Mesa,Active,33.393229,-111.872274
-111.8607902,33.39322074,WB SOUTHERN AV & NS STEWART,Mesa,Active,33.393226,-111.860801
-111.8571473,33.42229471,WB UNIVERSITY DR & FS ALMA SCHOOL RD,Mesa,Active,33.4223,-111.857158
-111.8404722,33.42250986,WB UNIVERSITY DR & FS COUNTRY CLUB DR,Mesa,Active,33.422515,-111.840483
-111.8443651,33.42242589,WB UNIVERSITY DR & FS DATE,Mesa,Active,33.422431,-111.844376
-111.8752181,33.42224874,WB UNIVERSITY DR & FS DOBSON RD,Mesa,Active,33.422254,-111.875229
-111.8487882,33.42239485,WB UNIVERSITY DR & FS EXTENSION RD,Mesa,Active,33.4224,-111.848799
-111.8656873,33.42223969,WB UNIVERSITY DR & FS LONGMORE RD,Mesa,Active,33.422245,-111.865698
-111.8792993,33.4222209,WB UNIVERSITY DR & FS MAY ST,Mesa,Active,33.422226,-111.87931
-111.8526961,33.42230788,WB UNIVERSITY DR & FS WESTWOOD,Mesa,Active,33.422313,-111.852707
-111.8607104,33.42224882,WB UNIVERSITY DR & NS STANDAGE,Mesa,Active,33.422254,-111.860721
-111.8010644,33.45080183,WB JUNE ST & FS LAZONA DR,Mesa,Active,33.450807,-111.801075
-111.7321882,33.42269071,EB UNIVERSITY DR & FS QUINN,Mesa,Active,33.422696,-111.732199
-111.8223021,33.41492882,EB MAIN ST & FS MESA DR,Mesa,Active,33.414934,-111.822313
-111.8399131,33.38266173,NB COUNTRY CLUB DR & FS JUANITA AV,Mesa,Active,33.382667,-111.839924
-111.8238573,33.38246085,WB COURY AV & FS MESA DR,Mesa,Active,33.382466,-111.823868
-111.8421821,33.36803987,SB COUNTRY CLUB DR & FS MESETO AV,Mesa,Active,33.368045,-111.842193
-111.8420262,33.36373684,SB COUNTRY CLUB DR & FS GUADALUPE RD,Mesa,Active,33.363742,-111.842037
-111.8741911,33.41854685,NB DOBSON RD & NS 2ND ST,Mesa,Active,33.418552,-111.874202
-111.8070332,33.38263979,WB INVERNESS AV & FS STAPLEY DR,Mesa,Active,33.382645,-111.807044
-111.6841442,33.4658997,SB POWER RD & FS MCDOWELL RD,Mesa,Active,33.465905,-111.684155
-111.8409013,33.41494982,EB MAIN ST & NS COUNTRY CLUB DR,Mesa,Active,33.414955,-111.840912
-111.7888354,33.41552878,WB Main St FS Gilbert Rd,Mesa,Active,33.415534,-111.788846
-111.7877831,33.41522674,EB Main St FS Gilbert Rd,Mesa,Active,33.415232,-111.787794
-111.7706422,33.41529982,EB MAIN ST & FS LINDSAY RD,Mesa,Active,33.415305,-111.770653
-111.7706191,33.41557574,WB MAIN ST & NS LINDSAY RD,Mesa,Active,33.415581,-111.77063
-111.7546211,33.41564684,WB MAIN ST & FS VAL VISTA DR,Mesa,Active,33.415652,-111.754632
-111.7357564,33.41532065,EB MAIN ST & FS GREENFIELD RD,Mesa,Active,33.415326,-111.735767
-111.7530293,33.41532374,EB MAIN ST & FS VAL VISTA DR,Mesa,Active,33.415329,-111.75304
-111.7368503,33.4156427,WB MAIN ST & FS GREENFIELD RD,Mesa,Active,33.415648,-111.736861
-111.7187153,33.41570881,WB MAIN ST & NS HIGLEY RD,Mesa,Active,33.415714,-111.718726
-111.7182202,33.41538178,EB MAIN ST & FS HIGLEY RD,Mesa,Active,33.415387,-111.718231
-111.7025882,33.41576586,WB MAIN ST & FS RECKER RD,Mesa,Active,33.415771,-111.702599
-111.7013253,33.41543991,EB MAIN ST & FS RECKER RD,Mesa,Active,33.415445,-111.701336
-111.6857167,33.4155171,EB MAIN ST & FS SUNAIRE RD,Mesa,Active,33.415522,-111.685727
-111.6852213,33.41582372,WB MAIN ST & FS POWER RD,Mesa,Active,33.415829,-111.685232
-111.6865813,33.31505092,NB POWER RD & FS GALVESTON,Mesa,Active,33.315056,-111.686592
-111.6875972,33.37217388,NB POWER RD & FS MADERO AV,Mesa,Active,33.372179,-111.687608
-111.6869422,33.33657869,NB POWER RD & FS WARNER RD,Mesa,Active,33.336584,-111.686953
-111.6845893,33.42648767,SB POWER RD & FS DECATUR ST,Mesa,Active,33.426493,-111.6846
-111.6845323,33.4320198,SB POWER RD & FS ENSENADA ST,Mesa,Active,33.432025,-111.684543
-111.6880072,33.37546887,SB POWER RD & FS KIOWA AV,Mesa,Active,33.375474,-111.688018
-111.6859942,33.32145589,EB RAY RD & FS POWER RD,Mesa,Active,33.321461,-111.686005
-111.6751202,33.31264572,SB SOSSAMAN RD & FS AVERY,Mesa,Active,33.312651,-111.675131
-111.8803961,33.37158589,SB DOBSON RD & FS LOS LAGOS VISTA,Mesa,Active,33.371591,-111.880407
-111.8796061,33.37517866,SB DOBSON RD & FS LINDNER,Mesa,Active,33.375184,-111.879617
-111.8775512,33.3670188,SB DOBSON RD & FS KEATING,Mesa,Active,33.367024,-111.877562
-111.8767741,33.36318175,SB DOBSON RD & FS GUADALUPE,Mesa,Active,33.363187,-111.876785
-111.8766831,33.36017989,SB DOBSON RD & FS PORTOBELLO,Mesa,Active,33.360185,-111.876694
-111.8763762,33.35794972,NB DOBSON RD & FS PAMPA,Mesa,Active,33.357955,-111.876387
-111.8743242,33.4313547,SB DOBSON RD & FS MESA RIVERVIEW DR,Mesa,Active,33.43136,-111.874335
-111.8681542,33.43436881,WB BASS PRO DR & FS RIVERVIEW DR,Mesa,Active,33.434374,-111.868165
-111.8627521,33.43637372,MESA RIVERVIEW AT CINEMARK & THEATER,Mesa,Active,33.436379,-111.862763
-111.7857901,33.41551873,WB MAIN ST & FS CHESTNUT ST,Mesa,Active,33.415524,-111.785801
-111.7850754,33.41525688,EB MAIN ST & FS CHESTNUT ST,Mesa,Active,33.415262,-111.785086
-111.7779183,33.41554866,WB MAIN ST & FS WINDSOR ST,Mesa,Active,33.415554,-111.777929
-111.7771853,33.41528289,EB MAIN ST & FS WINDSOR ST,Mesa,Active,33.415288,-111.777196
-111.7660733,33.41531388,EB MAIN ST & AT 3015,Mesa,Active,33.415319,-111.766084
-111.7619684,33.4153539,EB MAIN ST & AT E 3201,Mesa,Active,33.415359,-111.761979
-111.7575181,33.41536971,EB MAIN ST & AT E 3403,Mesa,Active,33.415375,-111.757529
-111.7581013,33.41563265,WB MAIN ST & AT E 3400,Mesa,Active,33.415638,-111.758112
-111.7497471,33.4156588,WB MAIN ST & FS 38TH ST,Mesa,Active,33.415664,-111.749758
-111.7460943,33.41561782,WB MAIN ST & FS SULLEYS DR,Mesa,Active,33.415623,-111.746105
-111.7447123,33.41529765,EB MAIN ST & FS 40TH ST,Mesa,Active,33.415303,-111.744723
-111.7419312,33.4156299,WB MAIN ST & FS NORFOLK ST,Mesa,Active,33.415635,-111.741942
-111.7316883,33.41533691,EB MAIN ST & FS QUINN DR,Mesa,Active,33.415342,-111.731699
-111.7315132,33.41566178,WB MAIN ST & NS QUINN DR,Mesa,Active,33.415667,-111.731524
-111.7281294,33.41567675,WB MAIN ST & FS 48TH ST,Mesa,Active,33.415682,-111.72814
-111.7272983,33.41535172,EB MAIN ST & FS 48TH ST,Mesa,Active,33.415357,-111.727309
-111.7238814,33.41536488,EB MAIN ST & AT E 5001,Mesa,Active,33.41537,-111.723892
-111.7228644,33.41569475,WB MAIN ST & AT E 5026,Mesa,Active,33.4157,-111.722875
-111.7151722,33.41570778,WB MAIN ST & FS 54TH ST,Mesa,Active,33.415713,-111.715183
-111.7152951,33.41539466,EB MAIN ST & NS 54TH ST,Mesa,Active,33.4154,-111.715306
-111.7108331,33.4154107,EB MAIN ST & NS 56TH ST,Mesa,Active,33.415416,-111.710844
-111.7109483,33.41573383,WB MAIN ST & FS 56TH ST,Mesa,Active,33.415739,-111.710959
-111.7065843,33.41574273,WB MAIN ST & FS 58TH ST,Mesa,Active,33.415748,-111.706595
-111.7047871,33.41542883,EB MAIN ST & FS 58TH ST,Mesa,Active,33.415434,-111.704798
-111.6947274,33.41546374,EB MAIN ST & FS 63RD ST,Mesa,Active,33.415469,-111.694738
-111.6957042,33.41577468,WB MAIN ST & FS 63RD ST,Mesa,Active,33.41578,-111.695715
-111.6902831,33.4158119,WB MAIN ST & FS 65TH ST,Mesa,Active,33.415817,-111.690294
-111.6890363,33.41548366,EB MAIN ST & FS 66TH ST,Mesa,Active,33.415489,-111.689047
-111.6875383,33.36864068,NB POWER RD & FS MONTEREY AV,Mesa,Active,33.368646,-111.687549
-111.6831321,33.3072708,WB WILLIAMS FIELD RD & FS EDGEWATER,Mesa,Active,33.307276,-111.683143
-111.6709063,33.31040188,SB SOSSAMAN RD & NS TAHOE AV,Mesa,Active,33.310407,-111.670917
-111.8797531,33.37077381,NB DOBSON & AT MESA LIBRARY,Mesa,Active,33.370779,-111.879764
-111.8691973,33.43111978,SB MESA RIVERVIEW & AT HOME DEPOT,Mesa,Active,33.431125,-111.869208
-111.8739933,33.43094893,NB DOBSON RD & FS RIO SALADO PKWY,Mesa,Active,33.430954,-111.874004
-111.8671132,33.43356779,SB MESA RIVERVIEW & AT WALMART,Mesa,Active,33.433573,-111.867124
-111.6850473,33.3896339,SB POWER RD & FS HAMPTON AV,Mesa,Active,33.389639,-111.685058
-111.8423712,33.38172766,WEST MESA PARK-AND-RIDE,Mesa,Active,33.381733,-111.842382
-111.7863161,33.46749983,GILBERT & MCDOWELL PARK-AND-RIDE,Mesa,Active,33.467505,-111.786327
-111.8780751,33.37784471,SB DOBSON RD & FS BASELINE RD,Mesa,Active,33.37785,-111.878086
-111.8764081,33.36069074,NB DOBSON RD & FS PORTOBELLO AV,Mesa,Active,33.360696,-111.876419
-111.7372164,33.39396988,WB SOUTHERN AV & FS GREENFIELD RD,Mesa,Active,33.393975,-111.737227
-111.6838143,33.46261478,NB POWER RD & NS MELROSE ST,Mesa,Active,33.46262,-111.683825
-111.6841654,33.46215591,SB POWER RD & FS MELROSE ST,Mesa,Active,33.462161,-111.684176
-111.6842182,33.45869278,SB POWER RD & FS HERMOSA VISTA DR,Mesa,Active,33.458698,-111.684229
-111.7877503,33.43768769,NB GILBERT RD & FS BROWN RD,Mesa,Active,33.437693,-111.787761
-111.7877252,33.4395398,NB GILBERT RD & FS GARY ST,Mesa,Active,33.439545,-111.787736
-111.7876333,33.44427875,NB GILBERT RD & FS HALE ST,Mesa,Active,33.444284,-111.787644
-111.7874314,33.45222385,NB GILBERT RD & FS MCKELLIPS RD,Mesa,Active,33.452229,-111.787442
-111.7874041,33.45624471,NB GILBERT RD & FS LOCKWOOD ST,Mesa,Active,33.45625,-111.787415
-111.7894394,33.45955586,NB GILBERT RD & FS HERMOSA VISTA,Mesa,Active,33.459561,-111.78945
-111.8744282,33.42909171,SB DOBSON RD & FS RIO SALADO PKWY,Mesa,Active,33.429097,-111.874439
-111.6872392,33.37915472,EB BASELINE RD & FS POWER RD,Mesa,Active,33.37916,-111.68725
-111.6838094,33.37923271,EB BASELINE RD & FS ROSLYN,Mesa,Active,33.379238,-111.68382
-111.6802793,33.37920185,EB BASELINE RD & FS SUPERSTITION SPRINGS BLVD,Mesa,Active,33.379207,-111.68029
-111.6716172,33.37916966,EB BASELINE RD & FS AVOCA,Mesa,Active,33.379175,-111.671628
-111.6625141,33.37915768,EB E Baseline Rd & FS 78th ST,Mesa,Active,33.379163,-111.662525
-111.8563491,33.43621576,SB ALMA SCHOOL RD & FS BASS PRO DR,Mesa,Active,33.436221,-111.85636
-111.7200672,33.39400766,WB SOUTHERN AV & FS HIGLEY,Mesa,Active,33.394013,-111.720078
-111.7185694,33.3936348,EB SOUTHERN AV & FS HIGLEY,Mesa,Active,33.39364,-111.71858
-111.6837123,33.46690589,NB POWER RD & FS MCDOWELL RD,Mesa,Active,33.466911,-111.683723
-111.8310874,33.42242265,WB UNIVERSITY DR & NS CENTER ST,Mesa,Active,33.422428,-111.831098
-111.6858843,33.30700769,WB WILLIAMS FIELD RD & NS SAGEWOOD,Mesa,Active,33.307013,-111.685895
-111.6773202,33.30966682,WB INNOVATION WAY & NS TWINING,Mesa,Active,33.309672,-111.677331
-111.6675403,33.41869178,SB SOSSAMAN RD & FS BILLINGS ST,Mesa,Active,33.418697,-111.667551
-111.6679311,33.41552284,WB MAIN ST & FS SOSSAMAN RD,Mesa,Active,33.415528,-111.667942
-111.6721064,33.41553087,WB MAIN ST & FS 74TH ST,Mesa,Active,33.415536,-111.672117
-111.6757042,33.41554478,WB MAIN ST & NS SUNVALLEY BLVD,Mesa,Active,33.41555,-111.675715
-111.7761844,33.39372466,WB SOUTHERN AV & FS LYN RAE SQUARE,Mesa,Active,33.39373,-111.776195
-111.7762333,33.3934529,EB SOUTHERN AV & MB 24TH ST LINDSAY RD,Mesa,Active,33.393458,-111.776244
-111.8744813,33.4256598,SB DOBSON RD & FS DECATUR ST,Mesa,Active,33.425665,-111.874492
-111.8563733,33.43341873,SB ALMA SCHOOL RD & FS MOUNTAIN VIEW DR,Mesa,Active,33.433424,-111.856384
-111.8560703,33.43317975,NB ALMA SCHOOL RD & FS 10TH ST,Mesa,Active,33.433185,-111.856081
-111.6802362,33.30888085,WB TIBURON AV & NS INNOVATION WAY,Mesa,Active,33.308886,-111.680247
-111.8070242,33.37941672,NB STAPELY DR & FS BASELINE RD,Mesa,Active,33.379422,-111.807035
-111.6834373,33.42276172,EB UNIVERSITY DR & FS POWER RD,Mesa,Active,33.422767,-111.683448
-111.6675753,33.4218088,SB SOSSAMAN RD & FS UNIVERSITY DR,Mesa,Active,33.421814,-111.667586
-111.6867532,33.32589684,NB POWER RD & FS ORCHID LN,Mesa,Active,33.325902,-111.686764
-111.7660262,33.41559278,WB MAIN ST & AT E 3020,Mesa,Active,33.415598,-111.766037
-111.7627683,33.41560582,WB MAIN ST & AT E 3130,Mesa,Active,33.415611,-111.762779
-111.6693234,33.30806971,Phoenix-Mesa Gateway Airport,Mesa,Active,33.308075,-111.669334
-111.6839132,33.45198974,NB POWER RD & FS MCKELLIPS RD,Mesa,Active,33.451995,-111.683924
-111.8403112,33.38181986,SB COUNTRY CLUB DR & FS JUANITA AV,Mesa,Active,33.381825,-111.840322
-111.8423562,33.37248582,SB COUNTRY CLUB DR & FS DESERT LN,Mesa,Active,33.372491,-111.842367
-111.6901783,33.38723769,Superstition Springs Park-and-Ride,Mesa,Active,33.387243,-111.690189
-111.8290352,33.4159809,SB CENTENNIAL WAY & NS MAIN ST,Mesa,Active,33.415986,-111.829046
-111.8274512,33.42952579,EB 8TH ST & FITCH PARK,Mesa,Active,33.429531,-111.827462
-111.7985214,33.45134471,SB BARKLEY & FS MCKELLIPS RD,Mesa,Active,33.45135,-111.798532
-111.6843463,33.44436188,SB POWER RD & FS MCLELLAN RD,Mesa,Active,33.444367,-111.684357
-111.6839984,33.44413367,NB POWER RD & NS MCLELLAN RD,Mesa,Active,33.444139,-111.684009
-111.8560841,33.42985778,NB ALMA SCHOOL RD & FS 8TH ST,Mesa,Active,33.429863,-111.856095
-111.6811864,33.37948089,WB BASELINE RD & FS SUPERSTION SPRINGS BLVD,Mesa,Active,33.379486,-111.681197
-111.8015541,33.42255075,WB UNIVERSITY DR & FS LAZONA DR,Mesa,Active,33.422556,-111.801565
-111.8375572,33.42247478,WB UNIVERSITY DR & FS ROBSON,Mesa,Active,33.42248,-111.837568
-111.8447692,33.39339884,WB SOUTHERN AV & MB VINEYARD,Mesa,Active,33.393404,-111.84478
-111.8660362,33.41471087,EB MAIN ST & NS LONGMORE,Mesa,Active,33.414716,-111.866047
-111.7106793,33.40823081,EB BROADWAY RD & NS 56TH ST,Mesa,Active,33.408236,-111.71069
-111.7025262,33.40859766,WB BROADWAY RD & FS RECKER RD,Mesa,Active,33.408603,-111.702537
-111.8312222,33.42736271,NB CENTER ST & FS ATHLETICS WAY,Mesa,Active,33.427368,-111.831233
-111.8227822,33.39640878,NB MESA DR & FS 10TH DR,Mesa,Active,33.396414,-111.822793
-111.8314523,33.4286417,SB CENTER ST & FS 7TH PL,Mesa,Active,33.428647,-111.831463
-111.8462699,33.42945937,EB Rio Salado Pkwy & NS Cherry,Mesa,Active,33.429465,-111.846285
-111.8496671,33.42939578,EB RIO SALADO PKWY & FS HERITAGE,Mesa,Active,33.429401,-111.849678
-111.8557811,33.42951381,WB RIO SALADO PKWY & NS ALMA SCHOOL RD,Mesa,Active,33.429519,-111.855792
-111.8743982,33.39965988,NB Dobson Rd NS 8th Av,Mesa,Active,33.399665,-111.874409
-111.7025183,33.39402589,WB Southern Av FS Leisure World Bl,Mesa,Active,33.394031,-111.702529
-111.7902922,33.41499269,Gilbert Rd/Main St TC Bay 1,Mesa,Active,33.414998,-111.790303
-111.7905121,33.41502369,Gilbert Rd/Main St TC Bay 2,Mesa,Active,33.415029,-111.790523
-111.7903361,33.41477671,Gilbert Rd/Main St TC Bay 5,Mesa,Active,33.414782,-111.790347
-111.8702892,33.41571872,Sycamore/Main St TC Bay 2,Mesa,Active,33.415724,-111.8703
-111.8703931,33.41571986,Sycamore/Main St TC Bay 5,Mesa,Active,33.415725,-111.870404
-111.8228231,33.4024828,NB MESA DR & FS FRANKLIN AV,Mesa,Active,33.402488,-111.822834
-111.8230191,33.40374061,SB MESA DR & FS MARILYN AV,Mesa,Active,33.403746,-111.82303
-111.8053912,33.43097478,SB Stapley Dr FS 9th St,Mesa,Active,33.43098,-111.805402
-111.8044772,33.41501677,EB MAIN ST & FS STAPLEY DR,Mesa,Active,33.415022,-111.804488
-111.7959853,33.41514072,EB MAIN ST & FS HARRIS DR,Mesa,Active,33.415146,-111.795996
-111.8744331,33.40339388,NB DOBSON RD & MB 8TH AV BROADWAY RD,Mesa,Active,33.403399,-111.874444
-111.8400972,33.42901672,SB COUNTRY CLUB DR & FS 8TH ST,Mesa,Active,33.429022,-111.840108
-111.6838802,33.45771785,NB POWER RD & NS HERMOSA VISTA,Mesa,Active,33.457723,-111.683891
-111.8702901,33.41589984,Sycamore/Main St TC Bay 1,Mesa,Active,33.415905,-111.870301
-111.8128724,33.41494987,EB MAIN ST & FS HORNE,Mesa,Active,33.414955,-111.812883
-111.7985262,33.41536881,WB MAIN ST & FS HUNT DR,Mesa,Active,33.415374,-111.798537
-111.7617743,33.42259266,EB University Dr NS Creston,Mesa,Active,33.422598,-111.761785
-111.7352361,33.39364599,EB SOUTHERN AV & FS GREENFIELD RD,Mesa,Active,33.393651,-111.735247
-111.8696594,33.40771293,WB BROADWAY RD & MB SAGUARO,Mesa,Active,33.407718,-111.86967
-111.6735154,33.42230787,EB UNIVERSITY DR & FS SUNVALLEY BLVD,Mesa,Active,33.422313,-111.673526
-111.7491244,33.41534272,EB MAIN ST & NS 38TH ST,Mesa,Active,33.415348,-111.749135
-111.7412121,33.41533563,EB MAIN ST & FS NORFOLK ST,Mesa,Active,33.415341,-111.741223
-111.8401194,33.42574588,SB COUNTRY CLUB DR & FS 6TH PL,Mesa,Active,33.425751,-111.84013
-111.8088623,33.41495772,EB MAIN ST & FS MILLER,Mesa,Active,33.414963,-111.808873
-111.6896551,33.38724278,Superstition Springs TC Bay 6,Mesa,Active,33.387248,-111.689666
-111.8132473,33.41525691,WB MAIN ST & NS HORNE,Mesa,Active,33.415262,-111.813258
-111.8220383,33.40768191,EB BROADWAY RD & FS MESA DR,Mesa,Active,33.407687,-111.822049
-111.8419792,33.37776366,SB COUNTRY CLUB DR & FS BASELINE RD,Mesa,Active,33.377769,-111.84199
-111.8420664,33.37427789,NB COUNTRY CLUB DR & NS KIOWA AV,Mesa,Active,33.374283,-111.842077
-111.6833851,33.47066889,POWER RD PARK-AND-RIDE,Mesa,Active,33.470674,-111.683396
-111.8702266,33.4150676,WB MAIN ST & FS SYCAMORE,Mesa,Active,33.415073,-111.870237
